( pcb2gcode 2.5.0 )
( Software-independent Gcode )

G94 ( Millimeters per minute feed rate. )
G21 ( Units == Millimeters. )

G90 ( Absolute coordinates. )
G00 S13000 ( RPM spindle speed. )
G01 F120.00000 ( Feedrate. )


G00 Z15.00000 (Retract to tool change height)
T1
M5      (Spindle stop.)
G04 P1.00000 (Wait for spindle to stop)
(MSG, Change tool bit to mill diameter 0.45360mm)
M6      (Tool change.)
M0      (Temporary machine stop.)
M3 ( Spindle on clockwise. )
G04 P1.00000 (Wait for spindle to get up to speed)
G04 P0 ( dwell for no time -- G64 should not smooth over this point )
G00 Z2.00000 ( retract )

G00 X-5.15783 Y-2.76101 ( rapid move to begin. )
G01 F60.00000
( Mill infeed pass 1/1 )
G01 Z-0.10000
G04 P0 ( dwell for no time -- G64 should not smooth over this point )
G01 F120.00000
G01 X-5.15783 Y-2.76101
G01 X-5.03121 Y-2.73530
G01 X-4.97705 Y-2.71145
G01 X-4.87002 Y-2.63891
G01 X-4.76275 Y-2.53319
G01 X-4.59803 Y-2.41351
G01 X-4.41658 Y-2.32105
G01 X-4.22290 Y-2.25814
G01 X-4.02179 Y-2.22628
G01 X-3.81813 Y-2.22628
G01 X-3.61704 Y-2.25814
G01 X-3.42336 Y-2.32105
G01 X-3.24193 Y-2.41348
G01 X-3.07721 Y-2.53319
G01 X-2.93319 Y-2.67721
G01 X-2.81348 Y-2.84193
G01 X-2.72105 Y-3.02336
G01 X-2.65814 Y-3.21699
G01 X-2.62628 Y-3.41815
G01 X-2.62628 Y-4.58180
G01 X-2.65814 Y-4.78290
G01 X-2.72105 Y-4.97657
G01 X-2.81351 Y-5.15803
G01 X-2.93319 Y-5.32275
G01 X-3.02872 Y-5.42176
G01 X-3.09936 Y-5.52856
G01 X-3.12082 Y-5.58376
G01 X-3.14518 Y-5.71068
G01 X-3.14627 Y-7.99617
G01 X-3.17599 Y-8.14565
G01 X-3.23431 Y-8.28645
G01 X-3.31899 Y-8.41319
G01 X-3.84459 Y-8.93915
G01 X-3.92440 Y-9.05462
G01 X-3.94525 Y-9.09932
G01 X-3.97192 Y-9.22325
G01 X-3.97629 Y-9.26755
G01 X-3.97629 Y-10.81176
G01 X-3.98272 Y-10.87496
G01 X-4.01991 Y-10.98715
G01 X-4.08112 Y-11.08639
G01 X-4.16357 Y-11.16884
G01 X-4.26278 Y-11.23003
G01 X-4.37502 Y-11.26721
G01 X-4.43819 Y-11.27366
G01 X-5.56174 Y-11.27366
G01 X-5.62491 Y-11.26721
G01 X-5.73720 Y-11.23003
G01 X-5.77982 Y-11.20661
G01 X-5.89054 Y-11.16533
G01 X-5.92907 Y-11.15649
G01 X-5.95864 Y-11.15436
G01 X-6.07573 Y-11.15863
G01 X-6.11551 Y-11.16543
G01 X-6.22577 Y-11.20912
G01 X-6.26275 Y-11.23003
G01 X-6.37502 Y-11.26721
G01 X-6.43816 Y-11.27366
G01 X-7.56176 Y-11.27366
G01 X-7.62493 Y-11.26721
G01 X-7.73720 Y-11.23003
G01 X-7.77982 Y-11.20661
G01 X-7.89054 Y-11.16533
G01 X-7.92907 Y-11.15649
G01 X-7.95863 Y-11.15436
G01 X-8.07573 Y-11.15863
G01 X-8.11550 Y-11.16543
G01 X-8.22576 Y-11.20912
G01 X-8.26275 Y-11.23003
G01 X-8.37504 Y-11.26721
G01 X-8.43821 Y-11.27366
G01 X-9.56175 Y-11.27366
G01 X-9.62492 Y-11.26721
G01 X-9.73719 Y-11.23003
G01 X-9.77984 Y-11.20661
G01 X-9.89056 Y-11.16533
G01 X-9.92909 Y-11.15649
G01 X-9.95868 Y-11.15436
G01 X-10.07572 Y-11.15863
G01 X-10.11547 Y-11.16543
G01 X-10.22579 Y-11.20912
G01 X-10.26277 Y-11.23003
G01 X-10.37504 Y-11.26721
G01 X-10.43821 Y-11.27366
G01 X-11.56175 Y-11.27366
G01 X-11.62492 Y-11.26721
G01 X-11.73719 Y-11.23003
G01 X-11.77983 Y-11.20661
G01 X-11.89055 Y-11.16533
G01 X-11.92908 Y-11.15649
G01 X-11.95868 Y-11.15436
G01 X-12.07572 Y-11.15863
G01 X-12.11547 Y-11.16543
G01 X-12.22578 Y-11.20912
G01 X-12.26276 Y-11.23003
G01 X-12.37503 Y-11.26721
G01 X-12.43820 Y-11.27366
G01 X-13.56175 Y-11.27366
G01 X-13.62492 Y-11.26721
G01 X-13.73716 Y-11.23003
G01 X-13.83640 Y-11.16884
G01 X-13.91884 Y-11.08639
G01 X-13.98003 Y-10.98718
G01 X-14.01722 Y-10.87491
G01 X-14.02367 Y-10.81174
G01 X-14.02367 Y-9.26755
G01 X-14.02613 Y-9.23427
G01 X-14.04912 Y-9.11837
G01 X-14.06182 Y-9.08093
G01 X-14.07551 Y-9.05462
G01 X-14.15534 Y-8.93915
G01 X-14.68095 Y-8.41317
G01 X-14.76563 Y-8.28647
G01 X-14.82395 Y-8.14565
G01 X-14.85367 Y-7.99617
G01 X-14.85613 Y-5.69966
G01 X-14.88168 Y-5.57418
G01 X-14.90551 Y-5.52000
G01 X-14.97122 Y-5.42176
G01 X-15.06677 Y-5.32275
G01 X-15.18646 Y-5.15803
G01 X-15.27889 Y-4.97660
G01 X-15.34180 Y-4.78292
G01 X-15.37365 Y-4.58180
G01 X-15.37365 Y-3.41815
G01 X-15.34180 Y-3.21696
G01 X-15.27889 Y-3.02336
G01 X-15.18646 Y-2.84193
G01 X-15.06677 Y-2.67719
G01 X-14.92275 Y-2.53319
G01 X-14.75803 Y-2.41351
G01 X-14.57658 Y-2.32105
G01 X-14.38290 Y-2.25814
G01 X-14.18179 Y-2.22628
G01 X-13.97813 Y-2.22628
G01 X-13.77704 Y-2.25814
G01 X-13.58336 Y-2.32105
G01 X-13.40193 Y-2.41348
G01 X-13.23718 Y-2.53319
G01 X-13.12992 Y-2.63891
G01 X-13.02294 Y-2.71145
G01 X-12.98748 Y-2.72893
G01 X-12.94955 Y-2.74000
G01 X-12.83467 Y-2.76197
G01 X-12.77907 Y-2.76116
G01 X-12.80968 Y-2.78374
G01 X-12.82939 Y-2.76944
G01 X-12.82799 Y-2.76654
G01 X-12.82939 Y-2.76944
G01 X-12.84125 Y-2.76111
G01 X-12.78524 Y-2.76197
G01 X-12.67041 Y-2.74000
G01 X-12.63249 Y-2.72893
G01 X-12.59705 Y-2.71145
G01 X-12.49002 Y-2.63891
G01 X-12.38275 Y-2.53319
G01 X-12.21803 Y-2.41351
G01 X-12.03658 Y-2.32105
G01 X-11.84290 Y-2.25814
G01 X-11.64179 Y-2.22628
G01 X-11.43813 Y-2.22628
G01 X-11.23704 Y-2.25814
G01 X-11.04336 Y-2.32105
G01 X-10.86193 Y-2.41348
G01 X-10.69718 Y-2.53319
G01 X-10.58992 Y-2.63891
G01 X-10.48294 Y-2.71145
G01 X-10.44750 Y-2.72893
G01 X-10.40955 Y-2.74000
G01 X-10.29467 Y-2.76197
G01 X-10.23826 Y-2.76106
G01 X-10.26993 Y-2.78354
G01 X-10.30140 Y-2.76111
G01 X-10.24524 Y-2.76197
G01 X-10.13041 Y-2.74000
G01 X-10.09249 Y-2.72893
G01 X-10.05705 Y-2.71145
G01 X-9.95002 Y-2.63891
G01 X-9.84275 Y-2.53319
G01 X-9.67803 Y-2.41351
G01 X-9.49658 Y-2.32105
G01 X-9.30290 Y-2.25814
G01 X-9.10179 Y-2.22628
G01 X-8.89813 Y-2.22628
G01 X-8.69704 Y-2.25814
G01 X-8.50336 Y-2.32105
G01 X-8.32193 Y-2.41348
G01 X-8.15718 Y-2.53319
G01 X-8.04992 Y-2.63891
G01 X-7.94294 Y-2.71145
G01 X-7.90750 Y-2.72893
G01 X-7.86956 Y-2.74000
G01 X-7.75467 Y-2.76197
G01 X-7.69844 Y-2.76108
G01 X-7.72996 Y-2.78348
G01 X-7.76120 Y-2.76113
G01 X-7.70524 Y-2.76197
G01 X-7.59041 Y-2.74000
G01 X-7.55249 Y-2.72893
G01 X-7.51705 Y-2.71145
G01 X-7.41002 Y-2.63891
G01 X-7.30275 Y-2.53319
G01 X-7.13804 Y-2.41351
G01 X-6.95658 Y-2.32105
G01 X-6.76290 Y-2.25814
G01 X-6.56179 Y-2.22628
G01 X-6.35813 Y-2.22628
G01 X-6.15704 Y-2.25814
G01 X-5.96336 Y-2.32105
G01 X-5.78193 Y-2.41348
G01 X-5.61718 Y-2.53319
G01 X-5.50992 Y-2.63891
G01 X-5.39438 Y-2.71640
G01 X-5.33921 Y-2.73784
G01 X-5.23425 Y-2.75897
G01 X-5.19491 Y-2.76329
G01 X-5.15783 Y-2.76101
G01 X-5.19029 Y-2.78420
G01 X-5.22237 Y-2.76098
G04 P0 ( dwell for no time -- G64 should not smooth over this point )
G00 Z2.00000 ( retract )

G00 X-5.64401 Y-6.32755 ( rapid move to begin. )
G01 F60.00000
( Mill infeed pass 1/1 )
G01 Z-0.10000
G04 P0 ( dwell for no time -- G64 should not smooth over this point )
G01 F120.00000
G01 X-5.64401 Y-6.32755
G01 X-5.70184 Y-6.40149
G01 X-5.79102 Y-6.53006
G01 X-5.85612 Y-6.64263
G01 X-5.88681 Y-6.70377
G01 X-5.88665 Y-6.95533
G01 X-5.88681 Y-6.70377
G01 X-5.84815 Y-6.62856
G01 X-5.79585 Y-6.60288
G01 X-5.74792 Y-6.58472
G01 X-5.64091 Y-6.55678
G01 X-5.57314 Y-6.54863
G01 X-4.87352 Y-6.54708
G01 X-4.80743 Y-6.61292
G01 X-4.87352 Y-6.54708
G01 X-4.87352 Y-5.60304
G01 X-4.85712 Y-5.59643
G01 X-4.87352 Y-5.60304
G01 X-4.89834 Y-5.58170
G01 X-4.99306 Y-5.48985
G01 X-5.07642 Y-5.39194
G01 X-5.07705 Y-4.94109
G01 X-5.04774 Y-5.01170
G01 X-4.99364 Y-5.11338
G01 X-4.91688 Y-5.22877
G01 X-4.82216 Y-5.34022
G01 X-4.73908 Y-5.41998
G01 X-4.64678 Y-5.49280
G01 X-4.64678 Y-6.77347
G01 X-5.55325 Y-6.77492
G01 X-5.61116 Y-6.78254
G01 X-5.67883 Y-6.80072
G01 X-5.71304 Y-6.81446
G01 X-5.76362 Y-6.84152
G01 X-5.82016 Y-6.88294
G01 X-5.88226 Y-6.95015
G01 X-5.90433 Y-6.97967
G01 X-5.93253 Y-7.02996
G01 X-5.95729 Y-7.09414
G01 X-5.96649 Y-7.13405
G01 X-5.97680 Y-7.22500
G01 X-5.97657 Y-10.78517
G01 X-5.97167 Y-10.84102
G01 X-5.96483 Y-10.87620
G01 X-5.94164 Y-10.94903
G01 X-5.91632 Y-11.00049
G01 X-5.87024 Y-11.06622
G01 X-5.82209 Y-11.11534
G01 X-5.76905 Y-11.15520
G01 X-5.70141 Y-11.19091
G01 X-5.63425 Y-11.21331
G01 X-5.52491 Y-11.22677
G01 X-4.46220 Y-11.22642
G01 X-4.35397 Y-11.21024
G01 X-4.25056 Y-11.16706
G01 X-4.18391 Y-11.12020
G01 X-4.15417 Y-11.09208
G01 X-4.10327 Y-11.03178
G01 X-4.06105 Y-10.95347
G01 X-4.04571 Y-10.91550
G01 X-4.02925 Y-10.84870
G01 X-4.02323 Y-10.78009
G01 X-4.02318 Y-9.05093
G01 X-3.37292 Y-8.39846
G01 X-3.31922 Y-8.32907
G01 X-3.27858 Y-8.26178
G01 X-3.24206 Y-8.18197
G01 X-3.21544 Y-8.09836
G01 X-3.19791 Y-8.00306
G01 X-3.19316 Y-7.92000
G01 X-3.19316 Y-5.49265
G01 X-3.11048 Y-5.42826
G01 X-3.02402 Y-5.34703
G01 X-2.94112 Y-5.25221
G01 X-2.87195 Y-5.15536
G01 X-2.80899 Y-5.04584
G01 X-2.75742 Y-4.93052
G01 X-2.71945 Y-4.81647
G01 X-2.68702 Y-4.66484
G01 X-2.67365 Y-4.51119
G01 X-2.67338 Y-3.50467
G01 X-2.68534 Y-3.34655
G01 X-2.70231 Y-3.25206
G01 X-2.72133 Y-3.17724
G01 X-2.75265 Y-3.08204
G01 X-2.78676 Y-3.00015
G01 X-2.86352 Y-2.85793
G01 X-2.92247 Y-2.77218
G01 X-2.97284 Y-2.70919
G01 X-3.08445 Y-2.59464
G01 X-3.21823 Y-2.48948
G01 X-3.28635 Y-2.44632
G01 X-3.37703 Y-2.39763
G01 X-3.50713 Y-2.34353
G01 X-3.63764 Y-2.30558
G01 X-3.77835 Y-2.28125
G01 X-3.91366 Y-2.27320
G01 X-4.04863 Y-2.27985
G01 X-4.18211 Y-2.30106
G01 X-4.30073 Y-2.33304
G01 X-4.45696 Y-2.39504
G01 X-4.56555 Y-2.45334
G01 X-4.69311 Y-2.54218
G01 X-4.78607 Y-2.62308
G01 X-4.87462 Y-2.71846
G01 X-4.96321 Y-2.83721
G01 X-5.02648 Y-2.94584
G01 X-5.07667 Y-2.98143
G01 X-5.07642 Y-3.05590
G01 X-5.08104 Y-3.06634
G01 X-5.02648 Y-2.94584
G01 X-5.08584 Y-3.07807
G01 X-5.12526 Y-3.20210
G01 X-5.15752 Y-3.36865
G01 X-5.16679 Y-3.51658
G01 X-5.16659 Y-4.50078
G01 X-5.15650 Y-4.63972
G01 X-5.13618 Y-4.75348
G01 X-5.09963 Y-4.88277
G01 X-5.07705 Y-4.94109
G01 X-5.07431 Y-5.73811
G01 X-5.09158 Y-5.79940
G01 X-5.17375 Y-5.98340
G01 X-5.25810 Y-6.14594
G01 X-5.25173 Y-6.15135
G01 X-5.25810 Y-6.14594
G01 X-5.27365 Y-6.16179
G01 X-5.31241 Y-6.18302
G01 X-5.31114 Y-6.18571
G01 X-5.31241 Y-6.18302
G01 X-5.58963 Y-6.26181
G01 X-5.64401 Y-6.32755
G01 X-5.56433 Y-6.32150
G01 X-5.10029 Y-6.32069
G01 X-5.03489 Y-6.38526
G01 X-5.10029 Y-6.32069
G01 X-5.10029 Y-5.81967
G01 X-5.09158 Y-5.79940
G01 X-5.30898 Y-5.73098
G01 X-5.43044 Y-5.83306
G01 X-5.59024 Y-5.94040
G01 X-5.70621 Y-6.00408
G01 X-5.81965 Y-6.05432
G01 X-5.85290 Y-6.03402
G01 X-5.81965 Y-6.05432
G01 X-5.81965 Y-6.18414
G01 X-5.88658 Y-6.26996
G01 X-6.00156 Y-6.43849
G01 X-6.07764 Y-6.57766
G01 X-6.11050 Y-6.65180
G01 X-6.11495 Y-6.65071
G01 X-6.11050 Y-6.65180
G01 X-6.11342 Y-6.67692
G01 X-6.11342 Y-6.95541
G01 X-6.07220 Y-7.02033
G01 X-6.04609 Y-7.08342
G01 X-6.02739 Y-7.16895
G01 X-6.02371 Y-7.20971
G01 X-6.02318 Y-10.77496
G01 X-6.03298 Y-10.86625
G01 X-6.04807 Y-10.92281
G01 X-6.07083 Y-10.97689
G01 X-6.10621 Y-11.03600
G01 X-6.14342 Y-11.08121
G01 X-6.16478 Y-11.10331
G01 X-6.21817 Y-11.14669
G01 X-6.26852 Y-11.17681
G01 X-6.31518 Y-11.19731
G01 X-6.40966 Y-11.22205
G01 X-7.53435 Y-11.22660
G01 X-7.61627 Y-11.21720
G01 X-7.66315 Y-11.20513
G01 X-7.71746 Y-11.18324
G01 X-7.75365 Y-11.16411
G01 X-7.81230 Y-11.12350
G01 X-7.86369 Y-11.07399
G01 X-7.90644 Y-11.01687
G01 X-7.95099 Y-10.92517
G01 X-7.96895 Y-10.85875
G01 X-7.97590 Y-10.80224
G01 X-7.97679 Y-7.22500
G01 X-7.96978 Y-7.14576
G01 X-7.94553 Y-7.06054
G01 X-7.92846 Y-7.02330
G01 X-7.88622 Y-6.95368
G01 X-7.88657 Y-5.64830
G01 X-7.82858 Y-5.51002
G01 X-7.78906 Y-5.40375
G01 X-7.72678 Y-5.20479
G01 X-7.78906 Y-5.40375
G01 X-7.82858 Y-5.51002
G01 X-7.88657 Y-5.64830
G01 X-7.88622 Y-6.95368
G01 X-7.81624 Y-6.87962
G01 X-7.72678 Y-6.82089
G01 X-7.72678 Y-4.54000
G01 X-7.72025 Y-4.44307
G01 X-7.70679 Y-4.37589
G01 X-7.70674 Y-3.50959
G01 X-7.70136 Y-3.40530
G01 X-7.68937 Y-3.31239
G01 X-7.66011 Y-3.18201
G01 X-7.61647 Y-3.05410
G01 X-7.56590 Y-2.94510
G01 X-7.61637 Y-2.98143
G01 X-7.61647 Y-3.05410
G01 X-7.55317 Y-2.92100
G01 X-7.48934 Y-2.81645
G01 X-7.41213 Y-2.71503
G01 X-7.31967 Y-2.61696
G01 X-7.22645 Y-2.53695
G01 X-7.10522 Y-2.45313
G01 X-6.98594 Y-2.38956
G01 X-6.87205 Y-2.34353
G01 X-6.73036 Y-2.30287
G01 X-6.58477 Y-2.27973
G01 X-6.46209 Y-2.27320
G01 X-6.32752 Y-2.28023
G01 X-6.20164 Y-2.30025
G01 X-6.08327 Y-2.33175
G01 X-5.94520 Y-2.38442
G01 X-5.82214 Y-2.44874
G01 X-5.71030 Y-2.52413
G01 X-5.58805 Y-2.62882
G01 X-5.49138 Y-2.73497
G01 X-5.41226 Y-2.84422
G01 X-5.33971 Y-2.97269
G01 X-5.30319 Y-3.05824
G01 X-5.30344 Y-2.98163
G01 X-5.35488 Y-2.94498
G01 X-5.29143 Y-3.08607
G01 X-5.25874 Y-3.18602
G01 X-5.23720 Y-3.27650
G01 X-5.22364 Y-3.35989
G01 X-5.21454 Y-3.46189
G01 X-5.21325 Y-4.49011
G01 X-5.22097 Y-4.61914
G01 X-5.24142 Y-4.74381
G01 X-5.27213 Y-4.85879
G01 X-5.31223 Y-4.96636
G01 X-5.37291 Y-5.09054
G01 X-5.44736 Y-5.20697
G01 X-5.51835 Y-5.29720
G01 X-5.60057 Y-5.38328
G01 X-5.70568 Y-5.47243
G01 X-5.80037 Y-5.53801
G01 X-5.91081 Y-5.59933
G01 X-6.02005 Y-5.64660
G01 X-6.12930 Y-5.68188
G01 X-6.27316 Y-5.71251
G01 X-6.27316 Y-6.82079
G01 X-6.18604 Y-6.87766
G01 X-6.13710 Y-6.92526
G01 X-6.11342 Y-6.95541
G01 X-6.11342 Y-6.67692
G01 X-6.11050 Y-6.65180
G01 X-6.10210 Y-6.62803
G01 X-6.04642 Y-6.51853
G01 X-6.04642 Y-5.89344
G01 X-6.08648 Y-5.86583
G01 X-6.04642 Y-5.89344
G01 X-5.96138 Y-5.86621
G01 X-5.82069 Y-5.80756
G01 X-5.70027 Y-5.74213
G01 X-5.54670 Y-5.63621
G01 X-5.44449 Y-5.54777
G01 X-5.34688 Y-5.44558
G01 X-5.30316 Y-5.39064
G01 X-5.30385 Y-4.94406
G01 X-5.30367 Y-5.71858
G01 X-5.42524 Y-5.98084
G01 X-5.68564 Y-6.05340
G01 X-5.68676 Y-6.05094
G01 X-5.68564 Y-6.05340
G01 X-5.72574 Y-6.07421
G01 X-5.74190 Y-6.09016
G01 X-5.74424 Y-6.08767
G01 X-5.74190 Y-6.09016
G01 X-5.81965 Y-6.18414
G04 P0 ( dwell for no time -- G64 should not smooth over this point )
G00 Z2.00000 ( retract )

G00 X-7.94555 Y-5.14515 ( rapid move to begin. )
G01 F60.00000
( Mill infeed pass 1/1 )
G01 Z-0.10000
G04 P0 ( dwell for no time -- G64 should not smooth over this point )
G01 F120.00000
G01 X-7.94555 Y-5.14515
G01 X-8.00209 Y-5.32610
G01 X-8.05599 Y-5.46793
G01 X-8.10379 Y-5.57911
G01 X-8.11334 Y-5.62463
G01 X-8.11654 Y-5.62409
G01 X-8.11334 Y-5.62463
G01 X-8.11301 Y-6.95602
G01 X-8.07085 Y-7.02310
G01 X-8.04169 Y-7.09808
G01 X-8.03293 Y-7.13389
G01 X-8.02371 Y-7.20974
G01 X-8.02371 Y-10.79022
G01 X-8.02991 Y-10.85111
G01 X-8.03755 Y-10.88614
G01 X-8.05612 Y-10.94435
G01 X-8.08812 Y-11.00813
G01 X-8.12993 Y-11.06592
G01 X-8.15772 Y-11.09599
G01 X-8.20367 Y-11.13625
G01 X-8.27077 Y-11.17801
G01 X-8.33199 Y-11.20356
G01 X-8.39917 Y-11.22027
G01 X-8.44169 Y-11.22436
G01 X-9.55210 Y-11.22589
G01 X-9.63115 Y-11.21402
G01 X-9.69881 Y-11.19152
G01 X-9.73585 Y-11.17404
G01 X-9.79627 Y-11.13615
G01 X-9.84982 Y-11.08900
G01 X-9.90100 Y-11.02545
G01 X-9.93991 Y-10.95375
G01 X-9.95980 Y-10.89599
G01 X-9.96899 Y-10.85606
G01 X-9.97656 Y-10.78517
G01 X-9.97656 Y-7.21474
G01 X-9.96978 Y-7.14576
G01 X-9.94870 Y-7.07027
G01 X-9.93336 Y-7.03229
G01 X-9.89797 Y-6.97047
G01 X-9.87979 Y-6.94571
G01 X-9.82398 Y-6.88632
G01 X-9.75794 Y-6.83872
G01 X-9.72678 Y-6.82089
G01 X-9.72678 Y-5.49245
G01 X-9.81240 Y-5.42577
G01 X-9.89889 Y-5.34398
G01 X-9.98169 Y-5.24861
G01 X-10.05411 Y-5.14576
G01 X-9.99617 Y-5.33077
G01 X-9.94197 Y-5.47279
G01 X-9.89607 Y-5.57914
G01 X-9.88657 Y-5.62458
G01 X-9.88621 Y-6.95368
G01 X-9.88657 Y-5.62458
G01 X-9.88337 Y-5.62404
G01 X-9.88657 Y-5.62458
G01 X-9.89607 Y-5.57914
G01 X-9.94197 Y-5.47279
G01 X-9.99617 Y-5.33077
G01 X-10.05411 Y-5.14576
G01 X-10.11669 Y-5.03451
G01 X-10.16706 Y-4.91866
G01 X-10.20387 Y-4.80426
G01 X-10.23343 Y-4.66166
G01 X-10.24641 Y-4.50771
G01 X-10.24679 Y-3.51660
G01 X-10.24352 Y-3.43134
G01 X-10.22673 Y-3.29725
G01 X-10.19780 Y-3.17388
G01 X-10.15647 Y-3.05410
G01 X-10.10638 Y-2.94554
G01 X-10.15634 Y-2.98125
G01 X-10.15647 Y-3.05410
G01 X-10.10321 Y-2.93914
G01 X-10.04471 Y-2.83992
G01 X-9.96320 Y-2.72832
G01 X-9.87786 Y-2.63464
G01 X-9.79226 Y-2.55758
G01 X-9.68098 Y-2.47561
G01 X-9.57148 Y-2.41188
G01 X-9.46668 Y-2.36408
G01 X-9.33557 Y-2.31920
G01 X-9.19259 Y-2.28839
G01 X-9.07811 Y-2.27564
G01 X-8.95142 Y-2.27414
G01 X-8.82635 Y-2.28534
G01 X-8.72513 Y-2.30386
G01 X-8.61954 Y-2.33266
G01 X-8.51687 Y-2.37058
G01 X-8.42475 Y-2.41381
G01 X-8.32843 Y-2.46972
G01 X-8.23862 Y-2.53289
G01 X-8.16224 Y-2.59657
G01 X-8.09615 Y-2.66136
G01 X-8.02328 Y-2.74505
G01 X-7.95906 Y-2.83367
G01 X-7.90291 Y-2.92760
G01 X-7.84299 Y-3.05758
G01 X-7.84324 Y-2.98125
G01 X-7.89429 Y-2.94475
G01 X-7.85825 Y-3.01904
G01 X-7.82450 Y-3.10482
G01 X-7.79275 Y-3.20914
G01 X-7.76836 Y-3.32603
G01 X-7.75617 Y-3.43555
G01 X-7.75320 Y-3.52006
G01 X-7.75348 Y-4.50426
G01 X-7.76592 Y-4.65750
G01 X-7.79511 Y-4.80055
G01 X-7.83427 Y-4.92227
G01 X-7.88500 Y-5.03794
G01 X-7.94329 Y-5.14172
G01 X-8.01568 Y-5.24525
G01 X-8.09816 Y-5.34093
G01 X-8.18439 Y-5.42300
G01 X-8.27316 Y-5.49262
G01 X-8.27316 Y-6.82081
G01 X-8.18606 Y-6.87766
G01 X-8.13709 Y-6.92526
G01 X-8.11301 Y-6.95602
G04 P0 ( dwell for no time -- G64 should not smooth over this point )
G00 Z2.00000 ( retract )

G00 X-12.69624 Y-4.94426 ( rapid move to begin. )
G01 F60.00000
( Mill infeed pass 1/1 )
G01 Z-0.10000
G04 P0 ( dwell for no time -- G64 should not smooth over this point )
G01 F120.00000
G01 X-12.69624 Y-4.94426
G01 X-12.63708 Y-5.07235
G01 X-12.57049 Y-5.18150
G01 X-12.51095 Y-5.26212
G01 X-12.44006 Y-5.34246
G01 X-12.33790 Y-5.43776
G01 X-12.25253 Y-5.50311
G01 X-12.16162 Y-5.56052
G01 X-12.05408 Y-5.61586
G01 X-11.93498 Y-5.66237
G01 X-11.83879 Y-5.69046
G01 X-11.72677 Y-5.71264
G01 X-11.72677 Y-6.82089
G01 X-11.82169 Y-6.88429
G01 X-11.86957 Y-6.93298
G01 X-11.89177 Y-6.96242
G01 X-11.93361 Y-7.03227
G01 X-11.95817 Y-7.09915
G01 X-11.96754 Y-7.13478
G01 X-11.97633 Y-7.20456
G01 X-11.97679 Y-10.77498
G01 X-11.97079 Y-10.84745
G01 X-11.95095 Y-10.92525
G01 X-11.90099 Y-11.02545
G01 X-11.84201 Y-11.09543
G01 X-11.81544 Y-11.12101
G01 X-11.76904 Y-11.15520
G01 X-11.69906 Y-11.19190
G01 X-11.58220 Y-11.22314
G01 X-10.43117 Y-11.22411
G01 X-10.33935 Y-11.20582
G01 X-10.26523 Y-11.17498
G01 X-10.20884 Y-11.14003
G01 X-10.15771 Y-11.09599
G01 X-10.13635 Y-11.07389
G01 X-10.09340 Y-11.01689
G01 X-10.06018 Y-10.95375
G01 X-10.04931 Y-10.92500
G01 X-10.03303 Y-10.86876
G01 X-10.02393 Y-10.80051
G01 X-10.02325 Y-7.21992
G01 X-10.03209 Y-7.13572
G01 X-10.05487 Y-7.06074
G01 X-10.07356 Y-7.01865
G01 X-10.11306 Y-6.95498
G01 X-10.11334 Y-5.64812
G01 X-10.16935 Y-5.51508
G01 X-10.20910 Y-5.40880
G01 X-10.27316 Y-5.20441
G01 X-10.20910 Y-5.40880
G01 X-10.16935 Y-5.51508
G01 X-10.11334 Y-5.64812
G01 X-10.11306 Y-6.95498
G01 X-10.17600 Y-6.88630
G01 X-10.24098 Y-6.83885
G01 X-10.27316 Y-6.82127
G01 X-10.27316 Y-4.54000
G01 X-10.27971 Y-4.44307
G01 X-10.29320 Y-4.37573
G01 X-10.29322 Y-3.51307
G01 X-10.30501 Y-3.34998
G01 X-10.32248 Y-3.25130
G01 X-10.35319 Y-3.13789
G01 X-10.39157 Y-3.03456
G01 X-10.43384 Y-2.94516
G01 X-10.38311 Y-2.98163
G01 X-10.38329 Y-3.05620
G01 X-10.44362 Y-2.92666
G01 X-10.49444 Y-2.84076
G01 X-10.56460 Y-2.74366
G01 X-10.62972 Y-2.66797
G01 X-10.70823 Y-2.59118
G01 X-10.79320 Y-2.52158
G01 X-10.88395 Y-2.45974
G01 X-10.98883 Y-2.40182
G01 X-11.08034 Y-2.36101
G01 X-11.18159 Y-2.32603
G01 X-11.29856 Y-2.29679
G01 X-11.41710 Y-2.27945
G01 X-11.51560 Y-2.27343
G01 X-11.59355 Y-2.27444
G01 X-11.70142 Y-2.28379
G01 X-11.77765 Y-2.29606
G01 X-11.86741 Y-2.31694
G01 X-11.94887 Y-2.34213
G01 X-12.02728 Y-2.37251
G01 X-12.18225 Y-2.45135
G01 X-12.26259 Y-2.50393
G01 X-12.33033 Y-2.55570
G01 X-12.39345 Y-2.61125
G01 X-12.46396 Y-2.68303
G01 X-12.51900 Y-2.74815
G01 X-12.56891 Y-2.81582
G01 X-12.61041 Y-2.88089
G01 X-12.65906 Y-2.97028
G01 X-12.69695 Y-3.05694
G01 X-12.69619 Y-2.98112
G01 X-12.64524 Y-2.94422
G01 X-12.70582 Y-3.07807
G01 X-12.74712 Y-3.20878
G01 X-12.76967 Y-3.31422
G01 X-12.78448 Y-3.44533
G01 X-12.78664 Y-4.49435
G01 X-12.77671 Y-4.63819
G01 X-12.75748 Y-4.74868
G01 X-12.72667 Y-4.86245
G01 X-12.69624 Y-4.94426
G01 X-12.69665 Y-5.39265
G01 X-12.59510 Y-5.50863
G01 X-12.49289 Y-5.60398
G01 X-12.38212 Y-5.68919
G01 X-12.27338 Y-5.75795
G01 X-12.14730 Y-5.82257
G01 X-11.99904 Y-5.87990
G01 X-11.95352 Y-5.89331
G01 X-11.91283 Y-5.86496
G01 X-11.95352 Y-5.89331
G01 X-11.95352 Y-6.51888
G01 X-11.99591 Y-6.44258
G01 X-12.09672 Y-6.29270
G01 X-12.14905 Y-6.22292
G01 X-12.25807 Y-6.09021
G01 X-12.25558 Y-6.08754
G01 X-12.25807 Y-6.09021
G01 X-12.27460 Y-6.07385
G01 X-12.31585 Y-6.05279
G01 X-12.31476 Y-6.05036
G01 X-12.31585 Y-6.05279
G01 X-12.57457 Y-5.98132
G01 X-12.69683 Y-5.71749
G01 X-12.69665 Y-5.39265
G01 X-12.69683 Y-5.71749
G01 X-12.69164 Y-5.72938
G01 X-12.63127 Y-5.78383
G01 X-12.52916 Y-5.86270
G01 X-12.37612 Y-5.96049
G01 X-12.24994 Y-6.02496
G01 X-12.18029 Y-6.05396
G01 X-12.14773 Y-6.03435
G01 X-12.18029 Y-6.05396
G01 X-12.18029 Y-6.18493
G01 X-12.10031 Y-6.28767
G01 X-11.99998 Y-6.43730
G01 X-11.92413 Y-6.57365
G01 X-11.88946 Y-6.65206
G01 X-11.88413 Y-6.65081
G01 X-11.88946 Y-6.65206
G01 X-11.88664 Y-6.67664
G01 X-11.88667 Y-6.95472
G01 X-12.35662 Y-6.32750
G01 X-12.41036 Y-6.26207
G01 X-12.68669 Y-6.18432
G01 X-12.68793 Y-6.18703
G01 X-12.68669 Y-6.18432
G01 X-12.72670 Y-6.16268
G01 X-12.74265 Y-6.14629
G01 X-12.74907 Y-6.15175
G01 X-12.74265 Y-6.14629
G01 X-12.82535 Y-5.98523
G01 X-12.90538 Y-5.80649
G01 X-12.92161 Y-5.76229
G01 X-12.92624 Y-5.73941
G01 X-12.92301 Y-5.66933
G01 X-12.92299 Y-4.94180
G01 X-12.90490 Y-4.89623
G01 X-12.87033 Y-4.78076
G01 X-12.84458 Y-4.64784
G01 X-12.83350 Y-4.50611
G01 X-12.83322 Y-3.51310
G01 X-12.84125 Y-3.38125
G01 X-12.86241 Y-3.25168
G01 X-12.89329 Y-3.13751
G01 X-12.93472 Y-3.02715
G01 X-12.97432 Y-2.94475
G01 X-12.92294 Y-2.98153
G01 X-12.92372 Y-3.05567
G01 X-12.98291 Y-2.92760
G01 X-13.04376 Y-2.82664
G01 X-13.11407 Y-2.73159
G01 X-13.18575 Y-2.65143
G01 X-13.28207 Y-2.56220
G01 X-13.36746 Y-2.49685
G01 X-13.46759 Y-2.43395
G01 X-13.58247 Y-2.37696
G01 X-13.67584 Y-2.34051
G01 X-13.77864 Y-2.31036
G01 X-13.90482 Y-2.28554
G01 X-14.02527 Y-2.27460
G01 X-14.13279 Y-2.27432
G01 X-14.23990 Y-2.28369
G01 X-14.36903 Y-2.30736
G01 X-14.47213 Y-2.33647
G01 X-14.56586 Y-2.37195
G01 X-14.67388 Y-2.42372
G01 X-14.77688 Y-2.48638
G01 X-14.86317 Y-2.54988
G01 X-14.94579 Y-2.62283
G01 X-15.02138 Y-2.70248
G01 X-15.08361 Y-2.78054
G01 X-15.15422 Y-2.88714
G01 X-15.21031 Y-2.99428
G01 X-15.25146 Y-3.09319
G01 X-15.28178 Y-3.18872
G01 X-15.31107 Y-3.32379
G01 X-15.32293 Y-3.42214
G01 X-15.32679 Y-3.51660
G01 X-15.32641 Y-4.50771
G01 X-15.31181 Y-4.67048
G01 X-15.28387 Y-4.80426
G01 X-15.24706 Y-4.91866
G01 X-15.19669 Y-5.03451
G01 X-15.13464 Y-5.14497
G01 X-15.06169 Y-5.24861
G01 X-14.97889 Y-5.34398
G01 X-14.89240 Y-5.42577
G01 X-14.80678 Y-5.49245
G01 X-14.80678 Y-7.92000
G01 X-14.80289 Y-7.99495
G01 X-14.79177 Y-8.06684
G01 X-14.76444 Y-8.16425
G01 X-14.72829 Y-8.24842
G01 X-14.68267 Y-8.32609
G01 X-14.62786 Y-8.39747
G01 X-13.97678 Y-9.05088
G01 X-13.97678 Y-10.77498
G01 X-13.97079 Y-10.84745
G01 X-13.95435 Y-10.91557
G01 X-13.92329 Y-10.98824
G01 X-13.88623 Y-11.04631
G01 X-13.83144 Y-11.10661
G01 X-13.79985 Y-11.13267
G01 X-13.72588 Y-11.17951
G01 X-13.65382 Y-11.20798
G01 X-13.57536 Y-11.22373
G01 X-12.47513 Y-11.22677
G01 X-12.37902 Y-11.21636
G01 X-12.31039 Y-11.19574
G01 X-12.23739 Y-11.15926
G01 X-12.17407 Y-11.11199
G01 X-12.13297 Y-11.07016
G01 X-12.09205 Y-11.01474
G01 X-12.06017 Y-10.95375
G01 X-12.03513 Y-10.87750
G01 X-12.02578 Y-10.82088
G01 X-12.02319 Y-7.22503
G01 X-12.03226 Y-7.13496
G01 X-12.05207 Y-7.06643
G01 X-12.09385 Y-6.98325
G01 X-12.12797 Y-6.93567
G01 X-12.17602 Y-6.88630
G01 X-12.22240 Y-6.85041
G01 X-12.28227 Y-6.81647
G01 X-12.38905 Y-6.78188
G01 X-12.44155 Y-6.77560
G01 X-13.35316 Y-6.77357
G01 X-13.35316 Y-5.49262
G01 X-13.26408 Y-5.42275
G01 X-13.18072 Y-5.34327
G01 X-13.09052 Y-5.23857
G01 X-13.01283 Y-5.12427
G01 X-12.95771 Y-5.02313
G01 X-12.92299 Y-4.94180
G01 X-12.92344 Y-5.39255
G01 X-13.01077 Y-5.49394
G01 X-13.10538 Y-5.58500
G01 X-13.12629 Y-5.60311
G01 X-13.14287 Y-5.59656
G01 X-13.12629 Y-5.60311
G01 X-13.12642 Y-6.54733
G01 X-13.19243 Y-6.61302
G01 X-13.12642 Y-6.54733
G01 X-12.41986 Y-6.54939
G01 X-12.34641 Y-6.55904
G01 X-12.24737 Y-6.58675
G01 X-12.19947 Y-6.60489
G01 X-12.15151 Y-6.62950
G01 X-12.11326 Y-6.70309
G01 X-12.11293 Y-6.95594
G01 X-12.11326 Y-6.70309
G01 X-12.19027 Y-6.56064
G01 X-12.28347 Y-6.42135
G01 X-12.35662 Y-6.32750
G01 X-12.43051 Y-6.32219
G01 X-12.89964 Y-6.32107
G01 X-12.96510 Y-6.38576
G01 X-12.89964 Y-6.32107
G01 X-12.89964 Y-5.81967
G04 P0 ( dwell for no time -- G64 should not smooth over this point )
G00 Z2.00000 ( retract )

G00 X-12.11344 Y-21.04550 ( rapid move to begin. )
G01 F60.00000
( Mill infeed pass 1/1 )
G01 Z-0.10000
G04 P0 ( dwell for no time -- G64 should not smooth over this point )
G01 F120.00000
G01 X-12.11344 Y-21.04550
G01 X-12.11356 Y-21.29607
G01 X-12.17643 Y-21.41494
G01 X-12.26243 Y-21.54999
G01 X-12.35545 Y-21.67222
G01 X-12.44100 Y-21.67905
G01 X-12.89964 Y-21.67964
G01 X-12.96497 Y-21.61517
G01 X-12.89964 Y-21.67964
G01 X-12.89964 Y-21.83884
G01 X-12.93957 Y-21.86630
G01 X-12.89964 Y-21.83884
G01 X-12.81143 Y-21.86671
G01 X-12.75568 Y-21.89152
G01 X-12.69375 Y-21.92668
G01 X-12.64382 Y-21.96181
G01 X-12.59444 Y-22.00392
G01 X-12.62159 Y-22.15578
G01 X-12.65992 Y-22.30966
G01 X-12.62159 Y-22.15578
G01 X-12.58735 Y-21.96417
G01 X-12.56782 Y-21.83242
G01 X-12.57534 Y-21.82871
G01 X-12.56782 Y-21.83242
G01 X-12.54524 Y-21.79373
G01 X-12.50945 Y-21.76681
G01 X-12.51440 Y-21.75894
G01 X-12.50945 Y-21.76681
G01 X-12.40925 Y-21.73790
G01 X-12.26243 Y-21.54999
G01 X-12.17643 Y-21.41494
G01 X-12.14529 Y-21.35909
G01 X-12.15151 Y-21.37024
G01 X-12.19015 Y-21.39081
G01 X-12.28583 Y-21.42630
G01 X-12.37562 Y-21.44588
G01 X-12.44211 Y-21.45228
G01 X-13.12642 Y-21.45312
G01 X-13.19253 Y-21.38718
G01 X-13.12642 Y-21.45312
G01 X-13.12642 Y-22.04644
G01 X-13.18890 Y-22.10592
G01 X-13.12642 Y-22.04644
G01 X-13.00919 Y-22.04928
G01 X-12.95903 Y-22.05779
G01 X-12.91019 Y-22.07189
G01 X-12.82733 Y-22.11062
G01 X-12.76157 Y-22.15843
G01 X-12.70538 Y-22.21720
G01 X-12.65583 Y-22.29416
G01 X-12.69766 Y-22.42508
G01 X-12.77668 Y-22.63851
G01 X-12.83320 Y-22.82942
G01 X-12.83320 Y-25.41085
G01 X-12.78387 Y-25.33907
G01 X-12.83320 Y-25.16993
G01 X-12.83409 Y-25.52032
G01 X-12.84762 Y-25.57968
G01 X-12.87071 Y-25.62494
G01 X-12.90323 Y-25.66388
G01 X-12.94364 Y-25.69467
G01 X-12.99962 Y-25.71862
G01 X-13.04981 Y-25.72654
G01 X-15.10000 Y-25.72680
G01 X-15.13042 Y-25.72474
G01 X-15.17007 Y-25.71570
G01 X-15.22494 Y-25.68928
G01 X-15.26393 Y-25.65672
G01 X-15.29972 Y-25.60747
G01 X-15.31861 Y-25.56032
G01 X-15.32656 Y-25.51016
G01 X-15.32679 Y-22.49998
G01 X-15.32313 Y-22.45949
G01 X-15.30434 Y-22.40158
G01 X-15.27078 Y-22.35076
G01 X-15.22494 Y-22.31070
G01 X-15.17967 Y-22.28766
G01 X-15.15046 Y-22.27887
G01 X-15.11016 Y-22.27341
G01 X-14.80678 Y-22.27318
G01 X-14.80678 Y-22.22663
G01 X-14.82474 Y-22.25225
G01 X-14.85367 Y-22.27318
G01 X-14.82474 Y-22.25225
G01 X-14.80678 Y-22.22663
G01 X-14.80678 Y-20.08000
G01 X-14.79631 Y-19.95729
G01 X-14.77470 Y-19.86664
G01 X-14.73703 Y-19.76940
G01 X-14.69177 Y-19.68774
G01 X-14.63667 Y-19.61276
G01 X-13.97678 Y-18.94916
G01 X-13.97678 Y-17.22498
G01 X-13.97229 Y-17.16136
G01 X-13.95766 Y-17.09544
G01 X-13.93764 Y-17.04170
G01 X-13.92164 Y-17.00962
G01 X-13.88306 Y-16.94965
G01 X-13.80439 Y-16.86994
G01 X-13.72657 Y-16.82181
G01 X-13.68951 Y-16.80434
G01 X-13.60167 Y-16.78023
G01 X-13.55324 Y-16.77492
G01 X-12.47280 Y-16.77319
G01 X-12.38245 Y-16.78282
G01 X-12.31803 Y-16.80152
G01 X-12.23861 Y-16.84056
G01 X-12.20787 Y-16.86093
G01 X-12.15758 Y-16.90411
G01 X-12.11682 Y-16.94962
G01 X-12.07432 Y-17.01625
G01 X-12.04806 Y-17.07716
G01 X-12.02792 Y-17.16014
G01 X-12.02324 Y-17.21990
G01 X-12.02319 Y-20.77499
G01 X-12.03528 Y-20.87334
G01 X-12.04425 Y-20.91121
G01 X-12.06528 Y-20.96541
G01 X-12.09904 Y-21.02536
G01 X-12.11722 Y-21.05015
G01 X-12.17986 Y-21.11692
G01 X-12.20401 Y-21.13592
G01 X-12.28227 Y-21.18350
G01 X-12.36629 Y-21.21350
G01 X-12.45189 Y-21.22564
G01 X-13.35316 Y-21.22660
G01 X-13.35316 Y-22.27318
G01 X-13.02954 Y-22.27524
G01 X-12.99962 Y-22.28136
G01 X-12.96157 Y-22.29564
G01 X-12.92667 Y-22.31649
G01 X-12.89606 Y-22.34326
G01 X-12.87071 Y-22.37504
G01 X-12.85565 Y-22.40158
G01 X-12.84135 Y-22.43966
G01 X-12.83523 Y-22.46955
G01 X-12.83320 Y-22.82942
G04 P0 ( dwell for no time -- G64 should not smooth over this point )
G00 Z2.00000 ( retract )

G00 X-12.69261 Y-25.55618 ( rapid move to begin. )
G01 F60.00000
( Mill infeed pass 1/1 )
G01 Z-0.10000
G04 P0 ( dwell for no time -- G64 should not smooth over this point )
G01 F120.00000
G01 X-12.69261 Y-25.55618
G01 X-12.64605 Y-25.53901
G01 X-12.61354 Y-25.49119
G01 X-12.56152 Y-25.51189
G01 X-12.51410 Y-25.50874
G01 X-12.38834 Y-25.51552
G01 X-12.34211 Y-25.52842
G01 X-12.25258 Y-25.56830
G01 X-12.03625 Y-25.67902
G01 X-11.84293 Y-25.74181
G01 X-11.64179 Y-25.77363
G01 X-11.43815 Y-25.77363
G01 X-11.23701 Y-25.74181
G01 X-11.04336 Y-25.67889
G01 X-10.86195 Y-25.58646
G01 X-10.69718 Y-25.46675
G01 X-10.58992 Y-25.36104
G01 X-10.48294 Y-25.28849
G01 X-10.44748 Y-25.27099
G01 X-10.40950 Y-25.25994
G01 X-10.29465 Y-25.23797
G01 X-10.23816 Y-25.23891
G01 X-10.27011 Y-25.21582
G01 X-10.30125 Y-25.23886
G01 X-10.24527 Y-25.23797
G01 X-10.13046 Y-25.25994
G01 X-10.09251 Y-25.27099
G01 X-10.05705 Y-25.28847
G01 X-9.95002 Y-25.36104
G01 X-9.84275 Y-25.46675
G01 X-9.67801 Y-25.58646
G01 X-9.49658 Y-25.67889
G01 X-9.30293 Y-25.74181
G01 X-9.10179 Y-25.77363
G01 X-8.89815 Y-25.77363
G01 X-8.69701 Y-25.74181
G01 X-8.50336 Y-25.67889
G01 X-8.32195 Y-25.58646
G01 X-8.15718 Y-25.46675
G01 X-8.04992 Y-25.36104
G01 X-7.94294 Y-25.28849
G01 X-7.90748 Y-25.27099
G01 X-7.86950 Y-25.25994
G01 X-7.75465 Y-25.23797
G01 X-7.69849 Y-25.23889
G01 X-7.72978 Y-25.21577
G01 X-7.76077 Y-25.23879
G01 X-7.70527 Y-25.23797
G01 X-7.59046 Y-25.25994
G01 X-7.55251 Y-25.27099
G01 X-7.51705 Y-25.28847
G01 X-7.41002 Y-25.36104
G01 X-7.30275 Y-25.46675
G01 X-7.13801 Y-25.58646
G01 X-6.95658 Y-25.67889
G01 X-6.76293 Y-25.74181
G01 X-6.56179 Y-25.77363
G01 X-6.35815 Y-25.77363
G01 X-6.15701 Y-25.74181
G01 X-5.96336 Y-25.67889
G01 X-5.78195 Y-25.58646
G01 X-5.61718 Y-25.46675
G01 X-5.50992 Y-25.36104
G01 X-5.40294 Y-25.28849
G01 X-5.36748 Y-25.27099
G01 X-5.32950 Y-25.25994
G01 X-5.21465 Y-25.23797
G01 X-5.15899 Y-25.23881
G01 X-5.17563 Y-25.22680
G01 X-5.17715 Y-25.22979
G01 X-5.17563 Y-25.22680
G01 X-5.19011 Y-25.21593
G01 X-5.22445 Y-25.23927
G01 X-5.18503 Y-25.23668
G01 X-5.14574 Y-25.24100
G01 X-5.03123 Y-25.26464
G01 X-4.97705 Y-25.28847
G01 X-4.87002 Y-25.36104
G01 X-4.76275 Y-25.46675
G01 X-4.59801 Y-25.58646
G01 X-4.41658 Y-25.67889
G01 X-4.22293 Y-25.74181
G01 X-4.02179 Y-25.77363
G01 X-3.81815 Y-25.77363
G01 X-3.61701 Y-25.74181
G01 X-3.42336 Y-25.67889
G01 X-3.24195 Y-25.58646
G01 X-3.07718 Y-25.46675
G01 X-2.93319 Y-25.32276
G01 X-2.81351 Y-25.15804
G01 X-2.72105 Y-24.97658
G01 X-2.65814 Y-24.78291
G01 X-2.62628 Y-24.58179
G01 X-2.62628 Y-23.41816
G01 X-2.65814 Y-23.21705
G01 X-2.72105 Y-23.02337
G01 X-2.81351 Y-22.84192
G01 X-2.93319 Y-22.67720
G01 X-3.02872 Y-22.57819
G01 X-3.09443 Y-22.47994
G01 X-3.11826 Y-22.42576
G01 X-3.14381 Y-22.30029
G01 X-3.14627 Y-20.00377
G01 X-3.17599 Y-19.85429
G01 X-3.23431 Y-19.71350
G01 X-3.31899 Y-19.58675
G01 X-3.84457 Y-19.06079
G01 X-3.92440 Y-18.94538
G01 X-3.94525 Y-18.90065
G01 X-3.97192 Y-18.77670
G01 X-3.97629 Y-18.73242
G01 X-3.97629 Y-17.18818
G01 X-3.98272 Y-17.12501
G01 X-4.01991 Y-17.01279
G01 X-4.08112 Y-16.91356
G01 X-4.16357 Y-16.83111
G01 X-4.26278 Y-16.76992
G01 X-4.37502 Y-16.73273
G01 X-4.43819 Y-16.72628
G01 X-5.56174 Y-16.72628
G01 X-5.62491 Y-16.73273
G01 X-5.73720 Y-16.76992
G01 X-5.77418 Y-16.79082
G01 X-5.88444 Y-16.83451
G01 X-5.92422 Y-16.84132
G01 X-6.04131 Y-16.84558
G01 X-6.07088 Y-16.84345
G01 X-6.10941 Y-16.83461
G01 X-6.22013 Y-16.79334
G01 X-6.26275 Y-16.76992
G01 X-6.37502 Y-16.73273
G01 X-6.43816 Y-16.72628
G01 X-7.56176 Y-16.72628
G01 X-7.62493 Y-16.73273
G01 X-7.73720 Y-16.76992
G01 X-7.77418 Y-16.79082
G01 X-7.88444 Y-16.83451
G01 X-7.92422 Y-16.84132
G01 X-8.04131 Y-16.84558
G01 X-8.07088 Y-16.84345
G01 X-8.10941 Y-16.83461
G01 X-8.22010 Y-16.79334
G01 X-8.26275 Y-16.76994
G01 X-8.37501 Y-16.73273
G01 X-8.43821 Y-16.72628
G01 X-9.56175 Y-16.72628
G01 X-9.62492 Y-16.73273
G01 X-9.73719 Y-16.76992
G01 X-9.77417 Y-16.79082
G01 X-9.88444 Y-16.83451
G01 X-9.92421 Y-16.84132
G01 X-10.04128 Y-16.84558
G01 X-10.07087 Y-16.84345
G01 X-10.10940 Y-16.83461
G01 X-10.22012 Y-16.79334
G01 X-10.26277 Y-16.76992
G01 X-10.37504 Y-16.73273
G01 X-10.43821 Y-16.72628
G01 X-11.56175 Y-16.72628
G01 X-11.62492 Y-16.73273
G01 X-11.73719 Y-16.76992
G01 X-11.77417 Y-16.79082
G01 X-11.88448 Y-16.83451
G01 X-11.92423 Y-16.84132
G01 X-12.04128 Y-16.84558
G01 X-12.07087 Y-16.84345
G01 X-12.10940 Y-16.83461
G01 X-12.22012 Y-16.79334
G01 X-12.26276 Y-16.76992
G01 X-12.37503 Y-16.73273
G01 X-12.43820 Y-16.72628
G01 X-13.56175 Y-16.72628
G01 X-13.62492 Y-16.73273
G01 X-13.73716 Y-16.76992
G01 X-13.83640 Y-16.83111
G01 X-13.91884 Y-16.91356
G01 X-13.98003 Y-17.01279
G01 X-14.01722 Y-17.12504
G01 X-14.02367 Y-17.18821
G01 X-14.02367 Y-18.73242
G01 X-14.02613 Y-18.76567
G01 X-14.04912 Y-18.88160
G01 X-14.05804 Y-18.90992
G01 X-14.07554 Y-18.94538
G01 X-14.15537 Y-19.06079
G01 X-14.68095 Y-19.58675
G01 X-14.76563 Y-19.71350
G01 X-14.82395 Y-19.85429
G01 X-14.85367 Y-20.00377
G01 X-14.85382 Y-21.79455
G01 X-14.85773 Y-21.83643
G01 X-14.88476 Y-21.95083
G01 X-14.89878 Y-21.98776
G01 X-14.91899 Y-22.02170
G01 X-14.98808 Y-22.11606
G01 X-15.03230 Y-22.15545
G01 X-15.12326 Y-22.21189
G01 X-15.15288 Y-22.22731
G01 X-15.23248 Y-22.25728
G01 X-15.29550 Y-22.30445
G01 X-15.34267 Y-22.36747
G01 X-15.37160 Y-22.44504
G01 X-15.37160 Y-25.55491
G01 X-15.34267 Y-25.63249
G01 X-15.29550 Y-25.69548
G01 X-15.23248 Y-25.74265
G01 X-15.15491 Y-25.77158
G01 X-15.13571 Y-25.77363
G01 X-13.02423 Y-25.77363
G01 X-13.00503 Y-25.77158
G01 X-12.92746 Y-25.74265
G01 X-12.86439 Y-25.69545
G01 X-12.84389 Y-25.67183
G01 X-12.76690 Y-25.60132
G01 X-12.72776 Y-25.57269
G01 X-12.60147 Y-25.52258
G01 X-12.56152 Y-25.51189
G04 P0 ( dwell for no time -- G64 should not smooth over this point )
G00 Z2.00000 ( retract )

G00 X-10.27316 Y-22.79579 ( rapid move to begin. )
G01 F60.00000
( Mill infeed pass 1/1 )
G01 Z-0.10000
G04 P0 ( dwell for no time -- G64 should not smooth over this point )
G01 F120.00000
G01 X-10.27316 Y-22.79579
G01 X-10.21141 Y-22.59764
G01 X-10.15749 Y-22.45523
G01 X-10.11334 Y-22.35167
G01 X-10.11306 Y-21.04502
G01 X-10.18073 Y-21.11764
G01 X-10.23567 Y-21.15820
G01 X-10.27316 Y-21.17773
G01 X-10.27316 Y-23.46000
G01 X-10.27971 Y-23.55690
G01 X-10.29320 Y-23.62424
G01 X-10.29340 Y-24.49919
G01 X-10.30554 Y-24.65443
G01 X-10.32919 Y-24.77747
G01 X-10.36551 Y-24.89848
G01 X-10.40938 Y-25.00498
G01 X-10.43546 Y-25.05608
G01 X-10.38344 Y-25.01854
G01 X-10.38329 Y-24.94211
G01 X-10.41390 Y-25.01516
G01 X-10.46455 Y-25.11041
G01 X-10.53551 Y-25.21862
G01 X-10.61517 Y-25.31618
G01 X-10.69106 Y-25.39284
G01 X-10.79657 Y-25.48090
G01 X-10.91138 Y-25.55649
G01 X-11.00673 Y-25.60698
G01 X-11.11273 Y-25.65105
G01 X-11.23673 Y-25.68931
G01 X-11.36411 Y-25.71407
G01 X-11.47836 Y-25.72527
G01 X-11.58626 Y-25.72573
G01 X-11.72235 Y-25.71339
G01 X-11.83094 Y-25.69233
G01 X-11.92698 Y-25.66502
G01 X-12.04806 Y-25.61839
G01 X-12.13759 Y-25.57424
G01 X-12.23157 Y-25.51737
G01 X-12.32019 Y-25.45250
G01 X-12.39538 Y-25.38684
G01 X-12.47859 Y-25.30066
G01 X-12.54112 Y-25.22283
G01 X-12.61339 Y-25.11415
G01 X-12.54740 Y-25.21458
G01 X-12.47186 Y-25.30805
G01 X-12.47838 Y-25.30091
G01 X-12.56904 Y-25.26657
G01 X-12.61339 Y-25.11415
G01 X-12.66822 Y-25.01021
G01 X-12.70719 Y-24.91831
G01 X-12.73835 Y-24.82345
G01 X-12.76594 Y-24.70688
G01 X-12.78118 Y-24.59812
G01 X-12.78677 Y-24.48690
G01 X-12.78654 Y-23.50653
G01 X-12.78222 Y-23.41334
G01 X-12.76701 Y-23.30031
G01 X-12.73541 Y-23.16577
G01 X-12.68865 Y-23.03572
G01 X-12.63998 Y-22.93302
G01 X-12.59258 Y-22.85174
G01 X-12.54468 Y-22.78167
G01 X-12.49213 Y-22.71504
G01 X-12.42979 Y-22.64661
G01 X-12.36254 Y-22.58301
G01 X-12.29383 Y-22.52693
G01 X-12.16914 Y-22.44407
G01 X-12.07394 Y-22.39330
G01 X-11.99246 Y-22.35822
G01 X-11.84986 Y-22.31276
G01 X-11.72677 Y-22.28761
G01 X-11.72677 Y-21.17908
G01 X-11.81623 Y-21.12035
G01 X-11.88669 Y-21.04563
G01 X-11.88667 Y-21.32218
G01 X-11.88969 Y-21.34867
G01 X-11.88428 Y-21.34994
G01 X-11.88969 Y-21.34867
G01 X-11.89878 Y-21.37372
G01 X-11.97958 Y-21.52846
G01 X-12.10815 Y-21.72388
G01 X-12.20246 Y-21.84489
G01 X-12.27503 Y-21.92635
G01 X-12.27135 Y-21.93160
G01 X-12.27503 Y-21.92635
G01 X-12.31303 Y-21.94611
G01 X-12.35796 Y-21.95896
G01 X-12.36983 Y-22.03602
G01 X-12.27310 Y-21.98586
G01 X-12.18029 Y-21.94504
G01 X-12.14544 Y-21.96696
G01 X-12.18029 Y-21.94504
G01 X-12.18029 Y-21.81636
G01 X-12.27503 Y-21.92635
G01 X-12.31303 Y-21.94611
G01 X-12.35796 Y-21.95896
G01 X-12.39888 Y-22.19858
G01 X-12.44214 Y-22.37285
G01 X-12.48374 Y-22.50036
G01 X-12.56152 Y-22.71011
G01 X-12.61430 Y-22.88863
G01 X-12.63513 Y-22.92429
G01 X-12.61430 Y-22.88863
G01 X-12.56152 Y-22.71011
G01 X-12.48374 Y-22.50036
G01 X-12.43609 Y-22.35025
G01 X-12.26998 Y-22.23996
G01 X-12.17618 Y-22.19089
G01 X-12.08471 Y-22.15083
G01 X-11.95352 Y-22.10773
G01 X-11.91306 Y-22.13580
G01 X-11.95352 Y-22.10773
G01 X-11.95352 Y-21.48081
G01 X-11.89878 Y-21.37372
G01 X-11.88969 Y-21.34867
G01 X-11.88667 Y-21.32218
G01 X-11.88669 Y-21.04563
G01 X-11.93051 Y-20.97418
G01 X-11.95817 Y-20.90082
G01 X-11.96754 Y-20.86519
G01 X-11.97656 Y-20.78505
G01 X-11.97447 Y-17.18422
G01 X-11.96896 Y-17.14376
G01 X-11.94907 Y-17.06997
G01 X-11.92611 Y-17.01739
G01 X-11.88545 Y-16.95267
G01 X-11.84623 Y-16.90733
G01 X-11.79515 Y-16.86303
G01 X-11.73599 Y-16.82549
G01 X-11.67041 Y-16.79735
G01 X-11.59172 Y-16.77827
G01 X-11.55324 Y-16.77492
G01 X-10.47534 Y-16.77319
G01 X-10.39978 Y-16.77962
G01 X-10.32977 Y-16.79765
G01 X-10.29627 Y-16.81033
G01 X-10.24509 Y-16.83624
G01 X-10.18764 Y-16.87634
G01 X-10.13727 Y-16.92509
G01 X-10.10209 Y-16.97037
G01 X-10.08324 Y-17.00085
G01 X-10.05251 Y-17.06522
G01 X-10.03303 Y-17.13121
G01 X-10.02370 Y-17.20972
G01 X-10.02325 Y-20.78004
G01 X-10.03209 Y-20.86425
G01 X-10.05487 Y-20.93923
G01 X-10.07356 Y-20.98131
G01 X-10.11306 Y-21.04502
G04 P0 ( dwell for no time -- G64 should not smooth over this point )
G00 Z2.00000 ( retract )

G00 X-8.11301 Y-21.04395 ( rapid move to begin. )
G01 F60.00000
( Mill infeed pass 1/1 )
G01 Z-0.10000
G04 P0 ( dwell for no time -- G64 should not smooth over this point )
G01 F120.00000
G01 X-8.11301 Y-21.04395
G01 X-8.13709 Y-21.07471
G01 X-8.18606 Y-21.12231
G01 X-8.27316 Y-21.17918
G01 X-8.27316 Y-22.50755
G01 X-8.18728 Y-22.57445
G01 X-8.09579 Y-22.66155
G01 X-8.01827 Y-22.75139
G01 X-7.94967 Y-22.84819
G01 X-7.88708 Y-22.95792
G01 X-7.83577 Y-23.07377
G01 X-7.79620 Y-23.19536
G01 X-7.76653 Y-23.33831
G01 X-7.75355 Y-23.49226
G01 X-7.75320 Y-24.48336
G01 X-7.75647 Y-24.56863
G01 X-7.77169 Y-24.69403
G01 X-7.79539 Y-24.80165
G01 X-7.83201 Y-24.91572
G01 X-7.87044 Y-25.00787
G01 X-7.89554 Y-25.05636
G01 X-7.84327 Y-25.01864
G01 X-7.84334 Y-24.94308
G01 X-7.87044 Y-25.00787
G01 X-7.91647 Y-25.09647
G01 X-7.97491 Y-25.18943
G01 X-8.04761 Y-25.28466
G01 X-8.11517 Y-25.35814
G01 X-8.20341 Y-25.43914
G01 X-8.29092 Y-25.50551
G01 X-8.38393 Y-25.56396
G01 X-8.48170 Y-25.61394
G01 X-8.58350 Y-25.65517
G01 X-8.68853 Y-25.68725
G01 X-8.79597 Y-25.70998
G01 X-8.89505 Y-25.72215
G01 X-9.04243 Y-25.72586
G01 X-9.14964 Y-25.71775
G01 X-9.27743 Y-25.69527
G01 X-9.38812 Y-25.66485
G01 X-9.48903 Y-25.62664
G01 X-9.62228 Y-25.56012
G01 X-9.71913 Y-25.49850
G01 X-9.81268 Y-25.42550
G01 X-9.89889 Y-25.34399
G01 X-9.97435 Y-25.25748
G01 X-10.06015 Y-25.13574
G01 X-10.11309 Y-25.04173
G01 X-10.15652 Y-24.94425
G01 X-10.15667 Y-25.01844
G01 X-10.10613 Y-25.05456
G01 X-10.16406 Y-24.92657
G01 X-10.20125 Y-24.81389
G01 X-10.22754 Y-24.69820
G01 X-10.24379 Y-24.56442
G01 X-10.24679 Y-24.47991
G01 X-10.24651 Y-23.49574
G01 X-10.23404 Y-23.34250
G01 X-10.20488 Y-23.19942
G01 X-10.16571 Y-23.07770
G01 X-10.11479 Y-22.96168
G01 X-10.05403 Y-22.85421
G01 X-9.99828 Y-22.67504
G01 X-9.94733 Y-22.54042
G01 X-9.89609 Y-22.42076
G01 X-9.88657 Y-22.37532
G01 X-9.88337 Y-22.37585
G01 X-9.88657 Y-22.37532
G01 X-9.88621 Y-21.04629
G01 X-9.88657 Y-22.37532
G01 X-9.89609 Y-22.42076
G01 X-9.94733 Y-22.54042
G01 X-9.99828 Y-22.67504
G01 X-10.05403 Y-22.85421
G01 X-9.98431 Y-22.75472
G01 X-9.90709 Y-22.66462
G01 X-9.81588 Y-22.57722
G01 X-9.72678 Y-22.50732
G01 X-9.72678 Y-21.17908
G01 X-9.75794 Y-21.16127
G01 X-9.82398 Y-21.11365
G01 X-9.87979 Y-21.05429
G01 X-9.89797 Y-21.02950
G01 X-9.93336 Y-20.96767
G01 X-9.94870 Y-20.92970
G01 X-9.96978 Y-20.85421
G01 X-9.97656 Y-20.78523
G01 X-9.97656 Y-17.21480
G01 X-9.96894 Y-17.14122
G01 X-9.95098 Y-17.07482
G01 X-9.92172 Y-17.00977
G01 X-9.90356 Y-16.97886
G01 X-9.87359 Y-16.93763
G01 X-9.82673 Y-16.88892
G01 X-9.77120 Y-16.84617
G01 X-9.69312 Y-16.80568
G01 X-9.62327 Y-16.78440
G01 X-9.53447 Y-16.77340
G01 X-8.44154 Y-16.77561
G01 X-8.40318 Y-16.77896
G01 X-8.33806 Y-16.79458
G01 X-8.27306 Y-16.82082
G01 X-8.20367 Y-16.86372
G01 X-8.15772 Y-16.90398
G01 X-8.12993 Y-16.93408
G01 X-8.08812 Y-16.99186
G01 X-8.05612 Y-17.05564
G01 X-8.03755 Y-17.11386
G01 X-8.02991 Y-17.14886
G01 X-8.02371 Y-17.20974
G01 X-8.02371 Y-20.79023
G01 X-8.03293 Y-20.86607
G01 X-8.04169 Y-20.90189
G01 X-8.07085 Y-20.97687
G01 X-8.11301 Y-21.04395
G01 X-8.11334 Y-22.37542
G01 X-8.11654 Y-22.37595
G01 X-8.11334 Y-22.37542
G01 X-8.10387 Y-22.42076
G01 X-8.05457 Y-22.53557
G01 X-8.00329 Y-22.67039
G01 X-7.94586 Y-22.85451
G04 P0 ( dwell for no time -- G64 should not smooth over this point )
G00 Z2.00000 ( retract )

G00 X-5.64398 Y-21.67242 ( rapid move to begin. )
G01 F60.00000
( Mill infeed pass 1/1 )
G01 Z-0.10000
G04 P0 ( dwell for no time -- G64 should not smooth over this point )
G01 F120.00000
G01 X-5.64398 Y-21.67242
G01 X-5.70164 Y-21.59869
G01 X-5.79900 Y-21.45675
G01 X-5.88681 Y-21.29653
G01 X-5.88668 Y-21.04420
G01 X-5.85937 Y-21.07875
G01 X-5.82399 Y-21.11365
G01 X-5.76138 Y-21.15985
G01 X-5.68952 Y-21.19564
G01 X-5.58246 Y-21.22312
G01 X-4.64678 Y-21.22650
G01 X-4.64678 Y-22.50707
G01 X-4.74226 Y-22.58276
G01 X-4.83314 Y-22.67107
G01 X-4.91457 Y-22.76813
G01 X-4.98577 Y-22.87295
G01 X-5.04591 Y-22.98446
G01 X-5.09458 Y-23.10186
G01 X-5.13293 Y-23.23145
G01 X-5.15854 Y-23.37704
G01 X-5.16679 Y-23.52004
G01 X-5.16659 Y-24.50076
G01 X-5.15864 Y-24.62025
G01 X-5.13573 Y-24.75654
G01 X-5.10479 Y-24.86749
G01 X-5.05831 Y-24.98865
G01 X-5.02445 Y-25.05629
G01 X-5.07677 Y-25.01872
G01 X-5.07632 Y-24.94333
G01 X-5.05831 Y-24.98865
G01 X-5.00479 Y-25.09454
G01 X-4.93014 Y-25.21039
G01 X-4.85884 Y-25.30038
G01 X-4.78427 Y-25.37833
G01 X-4.68056 Y-25.46794
G01 X-4.58287 Y-25.53594
G01 X-4.47297 Y-25.59746
G01 X-4.36423 Y-25.64496
G01 X-4.25148 Y-25.68191
G01 X-4.12854 Y-25.70919
G01 X-4.01038 Y-25.72349
G01 X-3.88407 Y-25.72626
G01 X-3.75816 Y-25.71623
G01 X-3.64213 Y-25.69543
G01 X-3.53482 Y-25.66563
G01 X-3.44823 Y-25.63406
G01 X-3.36433 Y-25.59594
G01 X-3.26756 Y-25.54244
G01 X-3.18338 Y-25.48590
G01 X-3.09725 Y-25.41659
G01 X-3.03019 Y-25.35337
G01 X-2.96822 Y-25.28514
G01 X-2.90596 Y-25.20516
G01 X-2.84554 Y-25.11252
G01 X-2.79771 Y-25.02314
G01 X-2.75730 Y-24.93015
G01 X-2.72212 Y-24.82530
G01 X-2.69974 Y-24.73589
G01 X-2.68432 Y-24.64504
G01 X-2.67439 Y-24.53457
G01 X-2.67355 Y-23.49246
G01 X-2.68432 Y-23.35611
G01 X-2.71620 Y-23.19536
G01 X-2.75577 Y-23.07377
G01 X-2.80708 Y-22.95792
G01 X-2.86390 Y-22.85771
G01 X-2.93827 Y-22.75139
G01 X-3.01579 Y-22.66155
G01 X-3.10728 Y-22.57445
G01 X-3.19316 Y-22.50755
G01 X-3.19316 Y-20.08000
G01 X-3.20007 Y-19.98109
G01 X-3.21120 Y-19.91919
G01 X-3.23108 Y-19.84903
G01 X-3.27739 Y-19.74121
G01 X-3.32402 Y-19.66399
G01 X-3.37292 Y-19.60154
G01 X-4.02318 Y-18.94903
G01 X-4.02349 Y-17.20964
G01 X-4.02925 Y-17.15127
G01 X-4.04297 Y-17.09435
G01 X-4.07431 Y-17.01625
G01 X-4.12128 Y-16.94398
G01 X-4.17612 Y-16.88653
G01 X-4.19981 Y-16.86697
G01 X-4.27766 Y-16.81858
G01 X-4.35298 Y-16.79029
G01 X-4.38889 Y-16.78193
G01 X-4.46220 Y-16.77355
G01 X-5.54929 Y-16.77449
G01 X-5.63029 Y-16.78572
G01 X-5.70842 Y-16.81223
G01 X-5.79453 Y-16.86260
G01 X-5.84530 Y-16.90644
G01 X-5.90100 Y-16.97452
G01 X-5.94284 Y-17.05592
G01 X-5.95986 Y-17.10416
G01 X-5.97286 Y-17.17403
G01 X-5.97657 Y-17.21480
G01 X-5.97680 Y-20.77496
G01 X-5.96649 Y-20.86592
G01 X-5.95389 Y-20.91550
G01 X-5.92597 Y-20.98088
G01 X-5.88668 Y-21.04420
G01 X-5.88681 Y-21.29653
G01 X-5.84835 Y-21.37054
G01 X-5.79585 Y-21.39711
G01 X-5.74792 Y-21.41522
G01 X-5.66946 Y-21.43658
G01 X-5.58289 Y-21.45081
G01 X-4.87352 Y-21.45289
G01 X-4.80743 Y-21.38705
G01 X-4.87352 Y-21.45289
G01 X-4.87352 Y-22.39711
G01 X-4.85706 Y-22.40374
G01 X-4.87352 Y-22.39711
G01 X-4.90207 Y-22.42160
G01 X-4.99605 Y-22.51332
G01 X-5.07622 Y-22.60755
G01 X-5.07716 Y-22.36554
G01 X-5.07362 Y-22.25985
G01 X-5.07832 Y-22.23770
G01 X-5.11358 Y-22.14844
G01 X-5.17698 Y-22.00869
G01 X-5.24500 Y-21.87308
G01 X-5.27314 Y-21.83773
G01 X-5.26230 Y-21.82439
G01 X-5.27314 Y-21.83773
G01 X-5.31284 Y-21.81619
G01 X-5.58955 Y-21.73821
G01 X-5.64398 Y-21.67242
G01 X-5.56433 Y-21.67847
G01 X-5.10029 Y-21.67931
G01 X-5.03489 Y-21.61471
G01 X-5.10029 Y-21.67931
G01 X-5.10029 Y-22.17994
G01 X-5.07832 Y-22.23770
G01 X-5.07609 Y-22.26023
G01 X-5.07622 Y-23.02243
G01 X-5.07703 Y-23.05868
G01 X-5.09031 Y-23.09076
G01 X-5.30375 Y-23.05370
G01 X-5.36245 Y-22.92868
G01 X-5.40106 Y-22.86183
G01 X-5.46227 Y-22.77298
G01 X-5.55871 Y-22.65850
G01 X-5.61635 Y-22.60209
G01 X-5.69275 Y-22.53722
G01 X-5.76171 Y-22.48708
G01 X-5.84766 Y-22.43407
G01 X-5.92221 Y-22.39513
G01 X-6.00357 Y-22.35975
G01 X-6.15709 Y-22.31057
G01 X-6.27316 Y-22.28787
G01 X-6.27316 Y-21.17918
G01 X-6.17911 Y-21.11624
G01 X-6.13095 Y-21.06783
G01 X-6.08609 Y-21.00354
G01 X-6.06824 Y-20.97131
G01 X-6.04314 Y-20.90778
G01 X-6.02394 Y-20.80052
G01 X-6.02318 Y-17.22501
G01 X-6.03080 Y-17.14309
G01 X-6.05450 Y-17.06042
G01 X-6.07865 Y-17.00840
G01 X-6.11525 Y-16.95166
G01 X-6.15917 Y-16.90192
G01 X-6.21091 Y-16.85856
G01 X-6.29181 Y-16.81249
G01 X-6.34657 Y-16.79184
G01 X-6.41271 Y-16.77751
G01 X-7.53435 Y-16.77337
G01 X-7.61627 Y-16.78277
G01 X-7.66315 Y-16.79484
G01 X-7.71746 Y-16.81676
G01 X-7.77527 Y-16.84917
G01 X-7.80494 Y-16.87104
G01 X-7.86887 Y-16.93222
G01 X-7.90854 Y-16.98633
G01 X-7.95099 Y-17.07482
G01 X-7.96895 Y-17.14122
G01 X-7.97639 Y-17.20626
G01 X-7.97679 Y-20.77496
G01 X-7.96978 Y-20.85421
G01 X-7.94553 Y-20.93946
G01 X-7.92846 Y-20.97667
G01 X-7.88622 Y-21.04629
G01 X-7.88657 Y-22.35190
G01 X-7.82726 Y-22.49325
G01 X-7.79028 Y-22.59261
G01 X-7.72678 Y-22.79597
G01 X-7.79028 Y-22.59261
G01 X-7.82726 Y-22.49325
G01 X-7.88657 Y-22.35190
G01 X-7.88622 Y-21.04629
G01 X-7.81624 Y-21.12035
G01 X-7.72678 Y-21.17908
G01 X-7.72678 Y-23.46000
G01 X-7.72025 Y-23.55690
G01 X-7.70679 Y-23.62411
G01 X-7.70669 Y-24.49383
G01 X-7.69094 Y-24.67656
G01 X-7.66788 Y-24.78903
G01 X-7.63303 Y-24.90244
G01 X-7.58756 Y-25.01204
G01 X-7.56430 Y-25.05606
G01 X-7.61652 Y-25.01849
G01 X-7.61657 Y-24.94277
G01 X-7.58756 Y-25.01204
G01 X-7.52795 Y-25.12339
G01 X-7.45736 Y-25.22817
G01 X-7.38172 Y-25.31958
G01 X-7.29772 Y-25.40340
G01 X-7.19999 Y-25.48344
G01 X-7.09465 Y-25.55316
G01 X-6.99940 Y-25.60383
G01 X-6.88010 Y-25.65387
G01 X-6.74789 Y-25.69281
G01 X-6.63514 Y-25.71440
G01 X-6.52775 Y-25.72474
G01 X-6.40182 Y-25.72517
G01 X-6.27304 Y-25.71270
G01 X-6.15526 Y-25.68880
G01 X-6.05947 Y-25.66071
G01 X-5.96636 Y-25.62471
G01 X-5.86753 Y-25.57681
G01 X-5.76489 Y-25.51504
G01 X-5.67649 Y-25.44983
G01 X-5.59420 Y-25.37717
G01 X-5.51861 Y-25.29749
G01 X-5.45031 Y-25.21148
G01 X-5.38985 Y-25.11979
G01 X-5.33771 Y-25.02314
G01 X-5.30314 Y-24.94344
G01 X-5.30357 Y-25.01864
G01 X-5.35511 Y-25.05583
G01 X-5.29092 Y-24.91285
G01 X-5.25986 Y-24.81796
G01 X-5.23471 Y-24.71067
G01 X-5.21843 Y-24.59429
G01 X-5.21320 Y-24.48344
G01 X-5.21338 Y-23.51077
G01 X-5.21741 Y-23.41753
G01 X-5.23400 Y-23.29310
G01 X-5.26336 Y-23.16983
G01 X-5.30375 Y-23.05370
G01 X-5.30296 Y-22.28286
G01 X-5.34700 Y-22.18144
G01 X-5.42519 Y-22.01896
G01 X-5.68637 Y-21.94629
G01 X-5.68752 Y-21.94878
G01 X-5.68637 Y-21.94629
G01 X-5.72600 Y-21.92553
G01 X-5.74197 Y-21.90971
G01 X-5.74431 Y-21.91220
G01 X-5.74197 Y-21.90971
G01 X-5.88691 Y-21.72947
G01 X-5.99148 Y-21.57666
G01 X-6.04642 Y-21.48096
G01 X-6.04642 Y-22.10760
G01 X-6.08698 Y-22.13582
G01 X-6.04642 Y-22.10760
G01 X-5.90215 Y-22.15629
G01 X-5.81929 Y-22.19305
G01 X-5.71302 Y-22.25004
G01 X-5.63943 Y-22.29607
G01 X-5.56585 Y-22.34895
G01 X-5.47413 Y-22.42485
G01 X-5.38338 Y-22.51438
G01 X-5.30299 Y-22.61006
G01 X-5.30291 Y-22.61814
G01 X-5.30296 Y-22.28286
G01 X-5.34700 Y-22.18144
G01 X-5.42519 Y-22.01896
G01 X-5.70723 Y-21.93788
G01 X-5.74197 Y-21.90971
G01 X-5.88691 Y-21.72947
G01 X-6.01596 Y-21.53602
G01 X-6.06897 Y-21.43981
G01 X-6.11058 Y-21.34779
G01 X-6.11515 Y-21.34893
G01 X-6.11058 Y-21.34779
G01 X-6.11342 Y-21.32302
G01 X-6.11350 Y-21.04469
G01 X-6.11342 Y-21.32302
G01 X-6.11058 Y-21.34779
G01 X-6.06897 Y-21.43981
G01 X-5.99148 Y-21.57666
G01 X-5.88691 Y-21.72947
G01 X-5.81965 Y-21.81583
G01 X-5.81965 Y-21.94496
G01 X-5.85206 Y-21.96442
G01 X-5.81965 Y-21.94496
G01 X-5.72168 Y-21.98835
G01 X-5.61924 Y-22.04209
G01 X-5.51226 Y-22.10831
G01 X-5.43250 Y-22.16554
G01 X-5.30901 Y-22.26856
G04 P0 ( dwell for no time -- G64 should not smooth over this point )
G00 Z2.00000 ( retract )

G00 X-1.27366 Y-26.25049 ( rapid move to begin. )
G01 F60.00000
( Mill infeed pass 1/1 )
G01 Z-0.10000
G04 P0 ( dwell for no time -- G64 should not smooth over this point )
G01 F120.00000
G01 X-1.27366 Y-26.25049
G01 X-1.27366 Y-1.74948
G01 X-1.27612 Y-1.71615
G01 X-1.29916 Y-1.60023
G01 X-1.31186 Y-1.56281
G01 X-1.32555 Y-1.53652
G01 X-1.38483 Y-1.44739
G01 X-1.40957 Y-1.41658
G01 X-1.43929 Y-1.39052
G01 X-1.53652 Y-1.32555
G01 X-1.56281 Y-1.31186
G01 X-1.60023 Y-1.29916
G01 X-1.71615 Y-1.27612
G01 X-1.74948 Y-1.27366
G01 X-16.25049 Y-1.27366
G01 X-16.28379 Y-1.27612
G01 X-16.39004 Y-1.29700
G01 X-16.43710 Y-1.31186
G01 X-16.55252 Y-1.38483
G01 X-16.59037 Y-1.41656
G01 X-16.66911 Y-1.52817
G01 X-16.69191 Y-1.57198
G01 X-16.72191 Y-1.70523
G01 X-16.72628 Y-1.74948
G01 X-16.72628 Y-26.25049
G01 X-16.72382 Y-26.28374
G01 X-16.70083 Y-26.39964
G01 X-16.69191 Y-26.42794
G01 X-16.67444 Y-26.46340
G01 X-16.60947 Y-26.56065
G01 X-16.58338 Y-26.59040
G01 X-16.56065 Y-26.60947
G01 X-16.46339 Y-26.67445
G01 X-16.43708 Y-26.68814
G01 X-16.39964 Y-26.70084
G01 X-16.28374 Y-26.72382
G01 X-16.25049 Y-26.72629
G01 X-1.74948 Y-26.72629
G01 X-1.70523 Y-26.72192
G01 X-1.57198 Y-26.69192
G01 X-1.52817 Y-26.66911
G01 X-1.41656 Y-26.59035
G01 X-1.38483 Y-26.55252
G01 X-1.31186 Y-26.43711
G01 X-1.29700 Y-26.39004
G01 X-1.27612 Y-26.28377
G01 X-1.27366 Y-26.25049
G01 X-1.04691 Y-26.25049
G01 X-1.04701 Y-26.26037
G01 X-1.05219 Y-26.31956
G01 X-1.07462 Y-26.43431
G01 X-1.10246 Y-26.52418
G01 X-1.13106 Y-26.58003
G01 X-1.19626 Y-26.67851
G01 X-1.25268 Y-26.74724
G01 X-1.32141 Y-26.80365
G01 X-1.41887 Y-26.86827
G01 X-1.48062 Y-26.89957
G01 X-1.56571 Y-26.92537
G01 X-1.68049 Y-26.94775
G01 X-1.73957 Y-26.95293
G01 X-16.26037 Y-26.95293
G01 X-16.32923 Y-26.94615
G01 X-16.46481 Y-26.91818
G01 X-16.52412 Y-26.89753
G01 X-16.58000 Y-26.86891
G01 X-16.69471 Y-26.79235
G01 X-16.74726 Y-26.74727
G01 X-16.79235 Y-26.69471
G01 X-16.86890 Y-26.58001
G01 X-16.90154 Y-26.51445
G01 X-16.92082 Y-26.45468
G01 X-16.94774 Y-26.31945
G01 X-16.95303 Y-26.25049
G01 X-16.95293 Y-1.73957
G01 X-16.94774 Y-1.68049
G01 X-16.92537 Y-1.56571
G01 X-16.89956 Y-1.48062
G01 X-16.86827 Y-1.41887
G01 X-16.80365 Y-1.32141
G01 X-16.74724 Y-1.25268
G01 X-16.67850 Y-1.19626
G01 X-16.58003 Y-1.13106
G01 X-16.52417 Y-1.10246
G01 X-16.44457 Y-1.07678
G01 X-16.32933 Y-1.05382
G01 X-16.27027 Y-1.04734
G01 X-1.73957 Y-1.04701
G01 X-1.67061 Y-1.05382
G01 X-1.53502 Y-1.08181
G01 X-1.47574 Y-1.10246
G01 X-1.41986 Y-1.13111
G01 X-1.30426 Y-1.20835
G01 X-1.25644 Y-1.24902
G01 X-1.20835 Y-1.30426
G01 X-1.13111 Y-1.41986
G01 X-1.09845 Y-1.48542
G01 X-1.07917 Y-1.54516
G01 X-1.05219 Y-1.68039
G01 X-1.04691 Y-1.74948
G01 X-1.04691 Y-26.25049
G01 X-1.00000 Y-26.79289
G01 X-1.00000 Y-27.00000
G01 X-16.99999 Y-27.00000
G01 X-16.99999 Y-26.79289
G01 X-16.95572 Y-26.85412
G01 X-16.90761 Y-26.90762
G01 X-16.85412 Y-26.95572
G01 X-16.79288 Y-27.00000
G01 X-16.85412 Y-26.95572
G01 X-16.90761 Y-26.90762
G01 X-16.95572 Y-26.85412
G01 X-16.99999 Y-26.79289
G01 X-16.99999 Y-1.00000
G01 X-16.79288 Y-1.00000
G01 X-16.85409 Y-1.04424
G01 X-16.90756 Y-1.09233
G01 X-16.95567 Y-1.14579
G01 X-16.99999 Y-1.20708
G01 X-16.95567 Y-1.14579
G01 X-16.90756 Y-1.09233
G01 X-16.85409 Y-1.04424
G01 X-16.79288 Y-1.00000
G01 X-1.00000 Y-1.00000
G01 X-1.00000 Y-1.20708
G01 X-1.04430 Y-1.14579
G01 X-1.09235 Y-1.09235
G01 X-1.14579 Y-1.04430
G01 X-1.20708 Y-1.00000
G01 X-1.14579 Y-1.04430
G01 X-1.09235 Y-1.09235
G01 X-1.04430 Y-1.14579
G01 X-1.00000 Y-1.20708
G01 X-1.00000 Y-26.79289
G01 X-1.04424 Y-26.85410
G01 X-1.09233 Y-26.90757
G01 X-1.14579 Y-26.95567
G01 X-1.20708 Y-27.00000

G04 P0 ( dwell for no time -- G64 should not smooth over this point )
G00 Z15.000000 ( retract )

M5 ( Spindle off. )
G04 P1.000000
M9 ( Coolant off. )
M2 ( Program end. )

