( pcb2gcode 2.5.0 )
( Software-independent Gcode )

G94 ( Millimeters per minute feed rate. )
G21 ( Units == Millimeters. )

G90 ( Absolute coordinates. )
G00 S13000 ( RPM spindle speed. )
G01 F120.00000 ( Feedrate. )


G00 Z15.00000 (Retract to tool change height)
T1
M5      (Spindle stop.)
G04 P1.00000 (Wait for spindle to stop)
(MSG, Change tool bit to cutter diameter 1.00000mm)
M6      (Tool change.)
M0      (Temporary machine stop.)
M3 ( Spindle on clockwise. )
G04 P1.00000 (Wait for spindle to get up to speed)
G04 P0 ( dwell for no time -- G64 should not smooth over this point )
G00 Z2.00000 ( retract )

G00 X-0.49997 Y-27.00000 ( rapid move to begin. )
G01 Z-0.50000 F60.00000 ( plunge. )
G04 P0 ( dwell for no time -- G64 should not smooth over this point )
G01 F120.00000
G01 X-0.49997 Y-1.00000
G01 X-0.50508 Y-0.92883
G01 X-0.52024 Y-0.85913
G01 X-0.54516 Y-0.79228
G01 X-0.57935 Y-0.72967
G01 X-0.61552 Y-0.68034
G01 X-0.65740 Y-0.63579
G01 X-0.70444 Y-0.59667
G01 X-0.75590 Y-0.56360
G01 X-0.81100 Y-0.53708
G01 X-0.87881 Y-0.51488
G01 X-0.93894 Y-0.50373
G01 X-1.00000 Y-0.49997
G01 X-16.99999 Y-0.49997
G01 X-17.07114 Y-0.50508
G01 X-17.14083 Y-0.52024
G01 X-17.20769 Y-0.54516
G01 X-17.27030 Y-0.57935
G01 X-17.31962 Y-0.61552
G01 X-17.36418 Y-0.65740
G01 X-17.40329 Y-0.70444
G01 X-17.43636 Y-0.75590
G01 X-17.46288 Y-0.81100
G01 X-17.48508 Y-0.87881
G01 X-17.49623 Y-0.93894
G01 X-17.49999 Y-1.00000
G01 X-17.49999 Y-27.00000
G01 X-17.49489 Y-27.07114
G01 X-17.47972 Y-27.14084
G01 X-17.45480 Y-27.20769
G01 X-17.42062 Y-27.27030
G01 X-17.38445 Y-27.31963
G01 X-17.34256 Y-27.36418
G01 X-17.29552 Y-27.40330
G01 X-17.24406 Y-27.43637
G01 X-17.18897 Y-27.46289
G01 X-17.13103 Y-27.48250
G01 X-17.07114 Y-27.49489
G01 X-17.01018 Y-27.49987
G01 X-0.98979 Y-27.49987
G01 X-0.93894 Y-27.49624
G01 X-0.88872 Y-27.48745
G01 X-0.80157 Y-27.45895
G01 X-0.75590 Y-27.43637
G01 X-0.71272 Y-27.40924
G01 X-0.64285 Y-27.34991
G01 X-0.60907 Y-27.31173
G01 X-0.57935 Y-27.27030
G01 X-0.53708 Y-27.18897
G01 X-0.52024 Y-27.14084
G01 X-0.50838 Y-27.09126
G01 X-0.49997 Y-27.00000
G01 Z-1.00000 F60.00000 ( plunge. )
G04 P0 ( dwell for no time -- G64 should not smooth over this point )
G01 F120.00000
G01 X-0.49997 Y-1.00000
G01 X-0.50508 Y-0.92883
G01 X-0.52024 Y-0.85913
G01 X-0.54516 Y-0.79228
G01 X-0.57935 Y-0.72967
G01 X-0.61552 Y-0.68034
G01 X-0.65740 Y-0.63579
G01 X-0.70444 Y-0.59667
G01 X-0.75590 Y-0.56360
G01 X-0.81100 Y-0.53708
G01 X-0.87881 Y-0.51488
G01 X-0.93894 Y-0.50373
G01 X-1.00000 Y-0.49997
G01 X-16.99999 Y-0.49997
G01 X-17.07114 Y-0.50508
G01 X-17.14083 Y-0.52024
G01 X-17.20769 Y-0.54516
G01 X-17.27030 Y-0.57935
G01 X-17.31962 Y-0.61552
G01 X-17.36418 Y-0.65740
G01 X-17.40329 Y-0.70444
G01 X-17.43636 Y-0.75590
G01 X-17.46288 Y-0.81100
G01 X-17.48508 Y-0.87881
G01 X-17.49623 Y-0.93894
G01 X-17.49999 Y-1.00000
G01 X-17.49999 Y-27.00000
G01 X-17.49489 Y-27.07114
G01 X-17.47972 Y-27.14084
G01 X-17.45480 Y-27.20769
G01 X-17.42062 Y-27.27030
G01 X-17.38445 Y-27.31963
G01 X-17.34256 Y-27.36418
G01 X-17.29552 Y-27.40330
G01 X-17.24406 Y-27.43637
G01 X-17.18897 Y-27.46289
G01 X-17.13103 Y-27.48250
G01 X-17.07114 Y-27.49489
G01 X-17.01018 Y-27.49987
G01 X-0.98979 Y-27.49987
G01 X-0.93894 Y-27.49624
G01 X-0.88872 Y-27.48745
G01 X-0.80157 Y-27.45895
G01 X-0.75590 Y-27.43637
G01 X-0.71272 Y-27.40924
G01 X-0.64285 Y-27.34991
G01 X-0.60907 Y-27.31173
G01 X-0.57935 Y-27.27030
G01 X-0.53708 Y-27.18897
G01 X-0.52024 Y-27.14084
G01 X-0.50838 Y-27.09126
G01 X-0.49997 Y-27.00000
G01 Z-1.50000 F60.00000 ( plunge. )
G04 P0 ( dwell for no time -- G64 should not smooth over this point )
G01 F120.00000
G01 X-0.49997 Y-1.00000
G01 X-0.50508 Y-0.92883
G01 X-0.52024 Y-0.85913
G01 X-0.54516 Y-0.79228
G01 X-0.57935 Y-0.72967
G01 X-0.61552 Y-0.68034
G01 X-0.65740 Y-0.63579
G01 X-0.70444 Y-0.59667
G01 X-0.75590 Y-0.56360
G01 X-0.81100 Y-0.53708
G01 X-0.87881 Y-0.51488
G01 X-0.93894 Y-0.50373
G01 X-1.00000 Y-0.49997
G01 X-16.99999 Y-0.49997
G01 X-17.07114 Y-0.50508
G01 X-17.14083 Y-0.52024
G01 X-17.20769 Y-0.54516
G01 X-17.27030 Y-0.57935
G01 X-17.31962 Y-0.61552
G01 X-17.36418 Y-0.65740
G01 X-17.40329 Y-0.70444
G01 X-17.43636 Y-0.75590
G01 X-17.46288 Y-0.81100
G01 X-17.48508 Y-0.87881
G01 X-17.49623 Y-0.93894
G01 X-17.49999 Y-1.00000
G01 X-17.49999 Y-27.00000
G01 X-17.49489 Y-27.07114
G01 X-17.47972 Y-27.14084
G01 X-17.45480 Y-27.20769
G01 X-17.42062 Y-27.27030
G01 X-17.38445 Y-27.31963
G01 X-17.34256 Y-27.36418
G01 X-17.29552 Y-27.40330
G01 X-17.24406 Y-27.43637
G01 X-17.18897 Y-27.46289
G01 X-17.13103 Y-27.48250
G01 X-17.07114 Y-27.49489
G01 X-17.01018 Y-27.49987
G01 X-0.98979 Y-27.49987
G01 X-0.93894 Y-27.49624
G01 X-0.88872 Y-27.48745
G01 X-0.80157 Y-27.45895
G01 X-0.75590 Y-27.43637
G01 X-0.71272 Y-27.40924
G01 X-0.64285 Y-27.34991
G01 X-0.60907 Y-27.31173
G01 X-0.57935 Y-27.27030
G01 X-0.53708 Y-27.18897
G01 X-0.52024 Y-27.14084
G01 X-0.50838 Y-27.09126
G01 X-0.49997 Y-27.00000
G01 Z-2.00000 F60.00000 ( plunge. )
G04 P0 ( dwell for no time -- G64 should not smooth over this point )
G01 F120.00000
G01 X-0.49997 Y-1.00000
G01 X-0.50508 Y-0.92883
G01 X-0.52024 Y-0.85913
G01 X-0.54516 Y-0.79228
G01 X-0.57935 Y-0.72967
G01 X-0.61552 Y-0.68034
G01 X-0.65740 Y-0.63579
G01 X-0.70444 Y-0.59667
G01 X-0.75590 Y-0.56360
G01 X-0.81100 Y-0.53708
G01 X-0.87881 Y-0.51488
G01 X-0.93894 Y-0.50373
G01 X-1.00000 Y-0.49997
G01 X-16.99999 Y-0.49997
G01 X-17.07114 Y-0.50508
G01 X-17.14083 Y-0.52024
G01 X-17.20769 Y-0.54516
G01 X-17.27030 Y-0.57935
G01 X-17.31962 Y-0.61552
G01 X-17.36418 Y-0.65740
G01 X-17.40329 Y-0.70444
G01 X-17.43636 Y-0.75590
G01 X-17.46288 Y-0.81100
G01 X-17.48508 Y-0.87881
G01 X-17.49623 Y-0.93894
G01 X-17.49999 Y-1.00000
G01 X-17.49999 Y-27.00000
G01 X-17.49489 Y-27.07114
G01 X-17.47972 Y-27.14084
G01 X-17.45480 Y-27.20769
G01 X-17.42062 Y-27.27030
G01 X-17.38445 Y-27.31963
G01 X-17.34256 Y-27.36418
G01 X-17.29552 Y-27.40330
G01 X-17.24406 Y-27.43637
G01 X-17.18897 Y-27.46289
G01 X-17.13103 Y-27.48250
G01 X-17.07114 Y-27.49489
G01 X-17.01018 Y-27.49987
G01 X-0.98979 Y-27.49987
G01 X-0.93894 Y-27.49624
G01 X-0.88872 Y-27.48745
G01 X-0.80157 Y-27.45895
G01 X-0.75590 Y-27.43637
G01 X-0.71272 Y-27.40924
G01 X-0.64285 Y-27.34991
G01 X-0.60907 Y-27.31173
G01 X-0.57935 Y-27.27030
G01 X-0.53708 Y-27.18897
G01 X-0.52024 Y-27.14084
G01 X-0.50838 Y-27.09126
G01 X-0.49997 Y-27.00000
G01 Z-2.50000 F60.00000 ( plunge. )
G04 P0 ( dwell for no time -- G64 should not smooth over this point )
G01 F120.00000
G01 X-0.49997 Y-1.00000
G01 X-0.50508 Y-0.92883
G01 X-0.52024 Y-0.85913
G01 X-0.54516 Y-0.79228
G01 X-0.57935 Y-0.72967
G01 X-0.61552 Y-0.68034
G01 X-0.65740 Y-0.63579
G01 X-0.70444 Y-0.59667
G01 X-0.75590 Y-0.56360
G01 X-0.81100 Y-0.53708
G01 X-0.87881 Y-0.51488
G01 X-0.93894 Y-0.50373
G01 X-1.00000 Y-0.49997
G01 X-16.99999 Y-0.49997
G01 X-17.07114 Y-0.50508
G01 X-17.14083 Y-0.52024
G01 X-17.20769 Y-0.54516
G01 X-17.27030 Y-0.57935
G01 X-17.31962 Y-0.61552
G01 X-17.36418 Y-0.65740
G01 X-17.40329 Y-0.70444
G01 X-17.43636 Y-0.75590
G01 X-17.46288 Y-0.81100
G01 X-17.48508 Y-0.87881
G01 X-17.49623 Y-0.93894
G01 X-17.49999 Y-1.00000
G01 X-17.49999 Y-27.00000
G01 X-17.49489 Y-27.07114
G01 X-17.47972 Y-27.14084
G01 X-17.45480 Y-27.20769
G01 X-17.42062 Y-27.27030
G01 X-17.38445 Y-27.31963
G01 X-17.34256 Y-27.36418
G01 X-17.29552 Y-27.40330
G01 X-17.24406 Y-27.43637
G01 X-17.18897 Y-27.46289
G01 X-17.13103 Y-27.48250
G01 X-17.07114 Y-27.49489
G01 X-17.01018 Y-27.49987
G01 X-0.98979 Y-27.49987
G01 X-0.93894 Y-27.49624
G01 X-0.88872 Y-27.48745
G01 X-0.80157 Y-27.45895
G01 X-0.75590 Y-27.43637
G01 X-0.71272 Y-27.40924
G01 X-0.64285 Y-27.34991
G01 X-0.60907 Y-27.31173
G01 X-0.57935 Y-27.27030
G01 X-0.53708 Y-27.18897
G01 X-0.52024 Y-27.14084
G01 X-0.50838 Y-27.09126
G01 X-0.49997 Y-27.00000

G04 P0 ( dwell for no time -- G64 should not smooth over this point )
G00 Z15.000000 ( retract )

M5 ( Spindle off. )
G04 P1.000000
M9 ( Coolant off. )
M2 ( Program end. )

